{"type": "FeatureCollection", "attribution": "© OpenStreetMap contributors (ODbL)", "source": ["https://api.openstreetmap.org/api/0.6/map?bbox=14.486,35.891,14.497,35.899"], "retrieved": "2026-10-05", "features": [{"type": "Feature", "properties": {"junction": "Msida Creek", "osm_way": "1460775989", "name": "Triq Mikiel Anton Vassalli", "highway": "trunk"}, "geometry": {"type": "LineString", "coordinates": [[14.4885904, 35.8955493], [14.4884683, 35.8956175], [14.4884006, 35.8956669], [14.4883509, 35.8957171], [14.4882879, 35.8957951], [14.4882346, 35.8958896], [14.488196, 35.8959893], [14.4881783, 35.8960805], [14.4881833, 35.896158], [14.4882028, 35.8962546], [14.4882544, 35.8964029], [14.4883121, 35.8966509], [14.4883231, 35.8967362], [14.488306, 35.8969208], [14.4882739, 35.897042], [14.4882195, 35.897155], [14.4880241, 35.8973736]]}}, {"type": "Feature", "properties": {"junction": "Msida Creek", "osm_way": "1460775991", "name": "Triq Mikiel Anton Vassalli", "highway": "trunk"}, "geometry": {"type": "LineString", "coordinates": [[14.4881304, 35.8973462], [14.4882591, 35.8971778], [14.4883154, 35.8970659], [14.4883423, 35.8969996], [14.488361, 35.896916], [14.4883651, 35.896734], [14.4883651, 35.8966791], [14.4883396, 35.8965721], [14.488296, 35.8964048], [14.4882403, 35.8961609], [14.4882631, 35.8960447], [14.4882873, 35.8959137], [14.4883061, 35.8958828], [14.4883249, 35.8958502], [14.488345, 35.8958122], [14.4883745, 35.8957736], [14.4884006, 35.8957492], [14.4884354, 35.8957171], [14.4884918, 35.8956676], [14.4885742, 35.8956106], [14.4886876, 35.8955639]]}}]}