{"type":"FeatureCollection","features":[{"type":"Feature","geometry":{"type":"Polygon","coordinates":[[[14.43574,35.8253],[14.4361,35.8252],[14.43507,35.82521],[14.43455,35.82484],[14.43538,35.8249],[14.43613,35.82451],[14.43589,35.82386],[14.43604,35.82377],[14.43658,35.824],[14.43658,35.82344],[14.43678,35.82344],[14.4369,35.82383],[14.43721,35.82371],[14.43844,35.82257],[14.43801,35.82338],[14.4391,35.82308],[14.43881,35.82322],[14.43856,35.82361],[14.43833,35.82364],[14.4383,35.82391],[14.43896,35.82365],[14.44014,35.82381],[14.441,35.82371],[14.44168,35.82347],[14.442,35.82305],[14.44263,35.82282],[14.443,35.82217],[14.44463,35.82158],[14.44477,35.82181],[14.44443,35.822],[14.44463,35.82223],[14.44521,35.82238],[14.446,35.82175],[14.44572,35.82134],[14.44643,35.82134],[14.44623,35.82118],[14.44677,35.8208],[14.44809,35.82045],[14.44838,35.82012],[14.44935,35.81991],[14.44966,35.81967],[14.44995,35.81992],[14.45075,35.81957],[14.45095,35.81966],[14.45127,35.82047],[14.45226,35.82156],[14.45142,35.8201],[14.45141,35.81959],[14.45233,35.81919],[14.45325,35.81923],[14.45327,35.81907],[14.45362,35.819],[14.45437,35.8195],[14.45465,35.81954],[14.45468,35.81938],[14.45502,35.81935],[14.45543,35.81947],[14.45543,35.81988],[14.45506,35.82023],[14.45509,35.82074],[14.45632,35.82026],[14.45621,35.82059],[14.45635,35.82096],[14.45667,35.82118],[14.45615,35.82135],[14.45624,35.82181],[14.4561,35.82204],[14.45645,35.82208],[14.45676,35.82233],[14.45702,35.82229],[14.4569,35.82203],[14.45725,35.82182],[14.45742,35.82201],[14.45813,35.82161],[14.45834,35.82175],[14.45816,35.82195],[14.45828,35.82223],[14.45862,35.82177],[14.45845,35.82119],[14.4591,35.82024],[14.45933,35.82012],[14.46272,35.82035],[14.46337,35.81995],[14.46504,35.81989],[14.46532,35.81973],[14.46526,35.81948],[14.46555,35.81938],[14.46589,35.81883],[14.46583,35.81864],[14.46669,35.81767],[14.46806,35.81738],[14.46897,35.81636],[14.47172,35.81518],[14.47201,35.81537],[14.47224,35.81527],[14.47241,35.8155],[14.47212,35.81573],[14.47258,35.8155],[14.47269,35.81527],[14.47287,35.81554],[14.47338,35.81499],[14.47515,35.81428],[14.47619,35.81436],[14.47693,35.81422],[14.47739,35.81431],[14.47757,35.81472],[14.4786,35.81476],[14.47952,35.81461],[14.47969,35.81443],[14.4798,35.81475],[14.48055,35.81511],[14.48216,35.81528],[14.48273,35.81505],[14.48341,35.81439],[14.48507,35.81369],[14.4861,35.81363],[14.48955,35.8142],[14.48972,35.81383],[14.49098,35.81405],[14.49259,35.81381],[14.49373,35.81403],[14.49568,35.8136],[14.49597,35.81332],[14.49648,35.81327],[14.49689,35.81345],[14.49917,35.8126],[14.5002,35.81176],[14.50278,35.81105],[14.50855,35.80828],[14.50884,35.8086],[14.50982,35.80859],[14.51027,35.80776],[14.5117,35.80747],[14.51199,35.80715],[14.51491,35.80712],[14.51571,35.80665],[14.51668,35.80665],[14.51686,35.80641],[14.51755,35.80687],[14.52225,35.80752],[14.52323,35.80751],[14.5246,35.80708],[14.52466,35.80694],[14.52615,35.80675],[14.52684,35.80697],[14.52678,35.80716],[14.5285,35.80723],[14.5289,35.80682],[14.52953,35.80686],[14.5305,35.80643],[14.53074,35.8068],[14.53114,35.8068],[14.53114,35.80698],[14.53166,35.8073],[14.5324,35.80738],[14.53246,35.80761],[14.53327,35.80798],[14.53395,35.80774],[14.53414,35.80794],[14.53498,35.80761],[14.5354,35.80768],[14.53684,35.80875],[14.53702,35.80915],[14.53786,35.80901],[14.53828,35.80955],[14.53896,35.80975],[14.53897,35.81076],[14.53847,35.81145],[14.53897,35.81137],[14.53955,35.81022],[14.54065,35.81041],[14.54175,35.81108],[14.54302,35.81154],[14.54286,35.81188],[14.54235,35.81222],[14.54413,35.8135],[14.54388,35.81384],[14.54965,35.81813],[14.5494,35.81826],[14.5438,35.81391],[14.54355,35.81391],[14.54295,35.81344],[14.54261,35.81337],[14.54212,35.81467],[14.54254,35.81466],[14.54313,35.81493],[14.54296,35.8152],[14.54653,35.81822],[14.54671,35.82059],[14.54646,35.82053],[14.54645,35.81877],[14.54259,35.82205],[14.54241,35.82145],[14.53972,35.82222],[14.53836,35.82141],[14.54382,35.81709],[14.54179,35.81609],[14.53339,35.822],[14.5322,35.82065],[14.53279,35.82024],[14.5327,35.8195],[14.53236,35.8197],[14.53051,35.82013],[14.53018,35.82169],[14.52968,35.8223],[14.5296,35.82305],[14.52918,35.8238],[14.52927,35.82461],[14.52978,35.82563],[14.53079,35.82541],[14.53139,35.82561],[14.53325,35.82661],[14.53351,35.82715],[14.53317,35.82777],[14.53276,35.82926],[14.53201,35.82988],[14.53167,35.83008],[14.53032,35.82962],[14.52964,35.83024],[14.53058,35.83125],[14.53058,35.83159],[14.53016,35.83206],[14.53042,35.8324],[14.53152,35.83259],[14.53253,35.83238],[14.53354,35.83244],[14.53388,35.8321],[14.5354,35.8327],[14.5381,35.83315],[14.53869,35.83226],[14.53945,35.83205],[14.53953,35.83164],[14.54037,35.83089],[14.54062,35.83041],[14.54289,35.82965],[14.54382,35.83011],[14.54458,35.82949],[14.54458,35.83024],[14.54526,35.83064],[14.54509,35.83085],[14.54645,35.83219],[14.54604,35.83308],[14.54545,35.83315],[14.54486,35.83349],[14.54486,35.83417],[14.54529,35.83498],[14.54554,35.83498],[14.54555,35.83586],[14.54462,35.83594],[14.54446,35.83682],[14.54463,35.83756],[14.54422,35.83825],[14.5438,35.83852],[14.54371,35.83886],[14.54491,35.84088],[14.5455,35.84122],[14.54626,35.84121],[14.54618,35.84094],[14.54786,35.84004],[14.5476,35.83984],[14.54802,35.83964],[14.54794,35.83943],[14.54752,35.83957],[14.54726,35.83937],[14.54592,35.84006],[14.54583,35.83979],[14.54701,35.83917],[14.5481,35.83923],[14.54937,35.83847],[14.55079,35.83724],[14.55213,35.83512],[14.55069,35.83459],[14.55196,35.83485],[14.55447,35.83198],[14.55523,35.83232],[14.55532,35.83204],[14.55413,35.83144],[14.55445,35.82859],[14.55681,35.82884],[14.5568,35.82715],[14.55611,35.82539],[14.55602,35.82404],[14.55778,35.823],[14.55828,35.82198],[14.55836,35.82056],[14.55861,35.82015],[14.55878,35.82021],[14.55903,35.81974],[14.55877,35.8192],[14.55919,35.81906],[14.56195,35.81986],[14.56206,35.82023],[14.56126,35.82088],[14.56103,35.82144],[14.56161,35.8219],[14.56196,35.82181],[14.56219,35.82218],[14.5622,35.82255],[14.56116,35.82274],[14.56023,35.82312],[14.55955,35.82443],[14.56013,35.82433],[14.56047,35.82451],[14.56105,35.82386],[14.56174,35.82404],[14.56256,35.82449],[14.56256,35.82515],[14.56279,35.82542],[14.56257,35.82598],[14.56326,35.82635],[14.56385,35.82792],[14.56304,35.82811],[14.56386,35.82848],[14.56432,35.82894],[14.56409,35.82922],[14.56259,35.82979],[14.56179,35.83035],[14.56202,35.83082],[14.56144,35.83082],[14.56179,35.83128],[14.56237,35.83137],[14.56238,35.83184],[14.56273,35.83267],[14.56192,35.83314],[14.56239,35.83332],[14.56296,35.83295],[14.56378,35.83359],[14.56355,35.83396],[14.5639,35.83489],[14.56321,35.83517],[14.56078,35.83519],[14.55963,35.83576],[14.55953,35.83781],[14.56011,35.83854],[14.56057,35.83873],[14.56208,35.83871],[14.56357,35.83786],[14.56415,35.8373],[14.56461,35.8373],[14.56473,35.83757],[14.56462,35.83832],[14.56358,35.83842],[14.56289,35.83908],[14.5622,35.83946],[14.5622,35.84038],[14.56129,35.84151],[14.56164,35.84197],[14.56303,35.84205],[14.56384,35.84278],[14.56477,35.84296],[14.56684,35.84174],[14.56765,35.84173],[14.56845,35.84051],[14.5688,35.84079],[14.56891,35.83986],[14.56995,35.83948],[14.57029,35.83957],[14.57111,35.8404],[14.57192,35.84039],[14.57273,35.84103],[14.5725,35.84141],[14.57135,35.84197],[14.57193,35.84225],[14.57112,35.84244],[14.57032,35.8431],[14.56881,35.84293],[14.56847,35.84311],[14.56894,35.84367],[14.5679,35.84433],[14.56721,35.84517],[14.56756,35.84563],[14.56792,35.84674],[14.56873,35.84794],[14.57013,35.84923],[14.57199,35.84986],[14.57129,35.85006],[14.57002,35.84988],[14.57002,35.85025],[14.56852,35.84999],[14.56898,35.85045],[14.56783,35.85037],[14.56736,35.85018],[14.5669,35.85037],[14.56505,35.84993],[14.56459,35.85012],[14.56447,35.85068],[14.5639,35.85096],[14.56355,35.85152],[14.56298,35.85199],[14.56333,35.85245],[14.56287,35.85329],[14.56367,35.85465],[14.56523,35.85491],[14.56567,35.85526],[14.56742,35.85512],[14.56771,35.85524],[14.56728,35.85548],[14.56816,35.85605],[14.5686,35.85734],[14.56962,35.85733],[14.56977,35.85756],[14.5705,35.85721],[14.57123,35.8572],[14.57153,35.85849],[14.57432,35.86092],[14.57593,35.86091],[14.57608,35.86173],[14.57578,35.86149],[14.57462,35.86162],[14.57433,35.86209],[14.5736,35.86234],[14.57317,35.86339],[14.57157,35.86376],[14.57128,35.86447],[14.56807,35.86532],[14.56617,35.86381],[14.56354,35.86372],[14.56207,35.86303],[14.56135,35.8635],[14.56326,35.86559],[14.56545,35.86522],[14.56647,35.86615],[14.56823,35.86707],[14.56969,35.86659],[14.57247,35.86715],[14.57407,35.86714],[14.5751,35.86736],[14.57481,35.86795],[14.57452,35.86807],[14.57423,35.86878],[14.57205,35.86985],[14.57205,35.87032],[14.57162,35.87091],[14.57119,35.87232],[14.57061,35.87291],[14.56959,35.87339],[14.56916,35.87398],[14.56814,35.87458],[14.56683,35.87576],[14.56567,35.87636],[14.56611,35.87647],[14.56597,35.87694],[14.56495,35.87754],[14.56465,35.8773],[14.56422,35.87754],[14.56466,35.87812],[14.56408,35.87883],[14.56205,35.88014],[14.56102,35.88015],[14.56088,35.88074],[14.56015,35.88074],[14.55826,35.8817],[14.55767,35.88135],[14.55695,35.88148],[14.55738,35.88171],[14.55666,35.88265],[14.55593,35.88266],[14.55608,35.88313],[14.55551,35.88442],[14.55463,35.88443],[14.55419,35.8849],[14.5539,35.88479],[14.55245,35.88562],[14.5526,35.88609],[14.55187,35.88668],[14.55173,35.88727],[14.55115,35.88762],[14.55115,35.88833],[14.55028,35.88857],[14.54838,35.8887],[14.54663,35.88931],[14.5462,35.89013],[14.54562,35.8906],[14.54344,35.89203],[14.543,35.89203],[14.54271,35.89262],[14.54228,35.89298],[14.54213,35.89345],[14.54155,35.89392],[14.54068,35.8944],[14.53951,35.89464],[14.53849,35.89547],[14.53747,35.89537],[14.53586,35.89421],[14.53528,35.89538],[14.53426,35.89539],[14.53397,35.89586],[14.53309,35.89587],[14.5331,35.89634],[14.53193,35.89623],[14.53193,35.89659],[14.53091,35.89648],[14.53062,35.8973],[14.53033,35.89766],[14.52901,35.89731],[14.52902,35.89814],[14.52844,35.89826],[14.5277,35.89756],[14.52639,35.89839],[14.52348,35.89924],[14.52318,35.89866],[14.52507,35.89712],[14.5258,35.89687],[14.5255,35.89629],[14.52652,35.89488],[14.52782,35.89369],[14.52738,35.89323],[14.52578,35.89347],[14.52447,35.89442],[14.52285,35.89303],[14.52226,35.89233],[14.52343,35.89221],[14.52386,35.89138],[14.52401,35.89068],[14.52532,35.89008],[14.52735,35.88866],[14.52589,35.88785],[14.5256,35.88808],[14.52531,35.88879],[14.52283,35.8894],[14.52108,35.89023],[14.51905,35.89201],[14.5192,35.89259],[14.51862,35.89307],[14.51657,35.89285],[14.51657,35.8925],[14.51701,35.8925],[14.5173,35.89202],[14.517,35.89168],[14.51919,35.89084],[14.5212,35.88554],[14.52061,35.88461],[14.52001,35.88169],[14.51974,35.88509],[14.52003,35.88567],[14.51989,35.88614],[14.51742,35.88862],[14.51743,35.88921],[14.51626,35.89016],[14.51539,35.89017],[14.51408,35.89135],[14.51335,35.89089],[14.51407,35.88936],[14.51566,35.88676],[14.51755,35.88558],[14.51725,35.88523],[14.51611,35.88593],[14.51652,35.88512],[14.51856,35.88404],[14.51841,35.88381],[14.51696,35.88464],[14.51739,35.883],[14.51723,35.88159],[14.51664,35.88113],[14.51692,35.87902],[14.51634,35.87879],[14.51621,35.88102],[14.51591,35.88102],[14.51517,35.87915],[14.51503,35.87927],[14.51518,35.88102],[14.51563,35.88278],[14.51303,35.88667],[14.51491,35.88337],[14.51432,35.88338],[14.51215,35.88621],[14.51142,35.88657],[14.50718,35.88484],[14.50689,35.88555],[14.50616,35.88556],[14.50571,35.88462],[14.50542,35.88345],[14.50468,35.88299],[14.5041,35.88358],[14.50249,35.88242],[14.50364,35.87925],[14.50071,35.87857],[14.49894,35.87577],[14.49851,35.87589],[14.50057,35.87916],[14.49795,35.88012],[14.49692,35.87895],[14.49561,35.88002],[14.49752,35.88106],[14.49942,35.88151],[14.50087,35.88056],[14.50116,35.88079],[14.50117,35.88138],[14.49958,35.88397],[14.49914,35.88421],[14.49885,35.88374],[14.49783,35.88422],[14.49783,35.88516],[14.50002,35.88467],[14.50105,35.88548],[14.50177,35.88501],[14.50515,35.88791],[14.50559,35.88779],[14.50617,35.88814],[14.50691,35.88825],[14.50749,35.88894],[14.50793,35.88871],[14.50837,35.88882],[14.50793,35.88906],[14.50808,35.88953],[14.5097,35.8908],[14.50941,35.89162],[14.50985,35.89232],[14.51088,35.89314],[14.51264,35.89394],[14.51337,35.89464],[14.51337,35.89522],[14.51558,35.89673],[14.5185,35.89729],[14.5185,35.89752],[14.51821,35.89788],[14.51851,35.89823],[14.51851,35.89905],[14.5191,35.90033],[14.51896,35.90092],[14.51955,35.9022],[14.52043,35.90266],[14.52014,35.90325],[14.5181,35.90362],[14.51693,35.90363],[14.51722,35.90328],[14.51664,35.90293],[14.51649,35.90223],[14.51561,35.90177],[14.51473,35.90178],[14.51386,35.90272],[14.51255,35.90273],[14.51064,35.90111],[14.51005,35.901],[14.5102,35.90064],[14.50976,35.90018],[14.50903,35.90018],[14.50859,35.90054],[14.50522,35.89893],[14.50522,35.89846],[14.50434,35.89811],[14.50448,35.89764],[14.50404,35.89765],[14.50199,35.89649],[14.50199,35.89614],[14.50052,35.89475],[14.49818,35.89442],[14.4973,35.89302],[14.49686,35.8929],[14.49731,35.89548],[14.49732,35.89642],[14.49528,35.89667],[14.4941,35.89597],[14.49352,35.8961],[14.49089,35.89518],[14.4903,35.89577],[14.49031,35.89636],[14.49572,35.89784],[14.5001,35.89756],[14.50055,35.8992],[14.50041,35.90002],[14.49953,35.90062],[14.49851,35.90063],[14.49618,35.9017],[14.49532,35.90382],[14.49576,35.90463],[14.49692,35.90334],[14.49897,35.90344],[14.50013,35.90272],[14.50334,35.90141],[14.50509,35.90127],[14.50671,35.90337],[14.50803,35.90383],[14.50657,35.90501],[14.50453,35.9055],[14.50249,35.9054],[14.49971,35.90566],[14.49751,35.9045],[14.49605,35.90463],[14.49826,35.90661],[14.49899,35.90754],[14.50104,35.90799],[14.50236,35.90856],[14.50514,35.90889],[14.50775,35.90711],[14.50994,35.90662],[14.51125,35.90556],[14.51271,35.90543],[14.51461,35.90635],[14.51491,35.9067],[14.51491,35.90717],[14.51447,35.90741],[14.51389,35.90729],[14.51229,35.90813],[14.51141,35.90837],[14.51215,35.90871],[14.51142,35.90907],[14.51098,35.90908],[14.51113,35.9099],[14.50997,35.9112],[14.50793,35.91156],[14.50705,35.91192],[14.50692,35.91368],[14.50751,35.91426],[14.50766,35.91461],[14.50678,35.91462],[14.50678,35.91544],[14.5046,35.91581],[14.50489,35.91628],[14.50125,35.91737],[14.50008,35.91831],[14.49862,35.91879],[14.4976,35.91798],[14.49759,35.91634],[14.49729,35.91541],[14.49437,35.91543],[14.49422,35.91449],[14.49349,35.91474],[14.49378,35.91532],[14.49335,35.91579],[14.49394,35.91649],[14.49365,35.91743],[14.49249,35.91826],[14.49088,35.91909],[14.49001,35.91922],[14.49016,35.91957],[14.49089,35.91991],[14.49293,35.91908],[14.49483,35.9193],[14.49513,35.92093],[14.49514,35.92222],[14.49543,35.92257],[14.49529,35.92304],[14.495,35.92363],[14.49296,35.92365],[14.49267,35.92389],[14.49296,35.92447],[14.49487,35.92609],[14.49531,35.92668],[14.49532,35.92703],[14.49459,35.92715],[14.4937,35.92634],[14.49312,35.92623],[14.49283,35.92599],[14.49224,35.92623],[14.49195,35.92659],[14.49122,35.92671],[14.48961,35.92637],[14.48859,35.92544],[14.48786,35.92568],[14.48742,35.92616],[14.48742,35.92663],[14.49226,35.92846],[14.4927,35.92928],[14.49052,35.93094],[14.49008,35.93047],[14.48935,35.93048],[14.4876,35.93178],[14.48599,35.93168],[14.48454,35.93286],[14.48294,35.93381],[14.48221,35.9337],[14.48104,35.93406],[14.48134,35.935],[14.4812,35.93594],[14.48134,35.93629],[14.48076,35.93676],[14.47974,35.93677],[14.4793,35.93713],[14.47872,35.93725],[14.47843,35.93702],[14.4774,35.93702],[14.47697,35.93785],[14.47624,35.93821],[14.47507,35.93833],[14.47375,35.93752],[14.47171,35.93742],[14.47097,35.93649],[14.47024,35.93638],[14.46951,35.9365],[14.46893,35.93639],[14.46878,35.93674],[14.46688,35.93664],[14.46615,35.93688],[14.46294,35.93714],[14.4609,35.93775],[14.46017,35.93822],[14.45915,35.93811],[14.45886,35.93858],[14.45901,35.94011],[14.45843,35.94035],[14.458,35.94164],[14.45756,35.94153],[14.45711,35.94047],[14.45638,35.94013],[14.45536,35.94037],[14.45463,35.94108],[14.45494,35.94354],[14.45567,35.94424],[14.45509,35.94448],[14.4551,35.94565],[14.45466,35.94635],[14.45452,35.94718],[14.45277,35.94778],[14.4513,35.94673],[14.45217,35.94438],[14.45202,35.94403],[14.4507,35.94322],[14.44982,35.94335],[14.44838,35.94687],[14.44692,35.94736],[14.44649,35.94771],[14.44605,35.94842],[14.44606,35.94912],[14.44679,35.94923],[14.44708,35.94958],[14.4446,35.95066],[14.44388,35.95207],[14.44227,35.95161],[14.44154,35.95162],[14.44067,35.95209],[14.43921,35.95328],[14.43761,35.95411],[14.43659,35.95447],[14.43615,35.95412],[14.43512,35.95413],[14.43454,35.9546],[14.43323,35.9552],[14.43235,35.95439],[14.43219,35.95298],[14.42823,35.9495],[14.42837,35.94868],[14.42706,35.9488],[14.42574,35.9487],[14.42457,35.94742],[14.42516,35.94858],[14.42428,35.94918],[14.42311,35.94801],[14.42134,35.94533],[14.42164,35.94662],[14.42282,35.94884],[14.42384,35.94906],[14.42385,35.94977],[14.42458,35.95082],[14.42459,35.95222],[14.4243,35.95281],[14.42416,35.95445],[14.42446,35.95586],[14.42549,35.9569],[14.42637,35.95737],[14.42579,35.95819],[14.42565,35.95913],[14.42624,35.95971],[14.42697,35.95994],[14.42799,35.95958],[14.42945,35.95933],[14.42989,35.95992],[14.4299,35.96039],[14.42814,35.96087],[14.42726,35.96005],[14.42697,35.96029],[14.42668,35.96006],[14.4258,35.9603],[14.42449,35.96008],[14.42346,35.95973],[14.42009,35.95788],[14.41921,35.95789],[14.41833,35.95755],[14.41731,35.95673],[14.41775,35.95661],[14.41774,35.95626],[14.41701,35.95603],[14.41686,35.95428],[14.4151,35.9537],[14.41363,35.95231],[14.41319,35.95219],[14.41217,35.95314],[14.41174,35.95326],[14.4091,35.95281],[14.40822,35.95223],[14.40865,35.95059],[14.40807,35.95024],[14.4069,35.9499],[14.40617,35.95026],[14.40602,35.94955],[14.40528,35.94897],[14.40397,35.94992],[14.40266,35.94993],[14.40134,35.94947],[14.40061,35.94901],[14.39373,35.9459],[14.38275,35.94188],[14.37132,35.93587],[14.36869,35.93472],[14.35523,35.93106],[14.35041,35.93098],[14.34398,35.93032],[14.34513,35.93011],[14.34478,35.92987],[14.34423,35.92866],[14.34304,35.92806],[14.34217,35.92815],[14.34163,35.92868],[14.3399,35.9286],[14.33914,35.92826],[14.33881,35.92731],[14.33914,35.92653],[14.34098,35.92643],[14.34228,35.92729],[14.34293,35.92719],[14.34335,35.92606],[14.34379,35.92571],[14.34368,35.92528],[14.34281,35.92407],[14.34409,35.92189],[14.34344,35.92094],[14.34214,35.92043],[14.34138,35.92034],[14.33966,35.9214],[14.33966,35.92192],[14.33912,35.92253],[14.33815,35.92289],[14.33706,35.92272],[14.3362,35.92281],[14.3363,35.92238],[14.33533,35.9223],[14.33533,35.92299],[14.33447,35.923],[14.33305,35.92171],[14.33284,35.92093],[14.33348,35.92049],[14.33272,35.92006],[14.33272,35.91954],[14.33239,35.9185],[14.33282,35.91789],[14.33228,35.91754],[14.33282,35.91624],[14.3326,35.9158],[14.3327,35.91537],[14.33324,35.91519],[14.33335,35.91415],[14.334,35.91388],[14.33454,35.91423],[14.3353,35.9144],[14.33541,35.91431],[14.3354,35.91292],[14.33756,35.91169],[14.33842,35.91142],[14.3382,35.91073],[14.33831,35.91021],[14.33885,35.90994],[14.33831,35.90934],[14.33841,35.90856],[14.33895,35.90829],[14.33993,35.90837],[14.34036,35.90811],[14.34046,35.90741],[14.34089,35.9068],[14.34057,35.90619],[14.33862,35.90621],[14.33743,35.90587],[14.33591,35.90579],[14.33396,35.90581],[14.33375,35.90607],[14.33104,35.90635],[14.32899,35.90706],[14.32802,35.90654],[14.32844,35.90498],[14.3292,35.90497],[14.33135,35.9027],[14.33135,35.90201],[14.33103,35.90149],[14.33102,35.90105],[14.33048,35.90088],[14.33048,35.90036],[14.32885,35.89916],[14.32928,35.89898],[14.32842,35.89847],[14.3296,35.89655],[14.32873,35.89699],[14.32884,35.89655],[14.33013,35.89515],[14.33132,35.89471],[14.33445,35.89174],[14.33702,35.88616],[14.33701,35.88442],[14.33635,35.88121],[14.33645,35.87991],[14.3399,35.87702],[14.34044,35.87571],[14.34076,35.87589],[14.34141,35.87545],[14.34173,35.87423],[14.34173,35.87362],[14.34368,35.87378],[14.34411,35.8736],[14.34422,35.87352],[14.34389,35.87291],[14.34572,35.87212],[14.34594,35.87151],[14.34831,35.87071],[14.34929,35.87096],[14.34994,35.87061],[14.35059,35.87095],[14.35307,35.87033],[14.35415,35.87066],[14.35437,35.87006],[14.35415,35.86936],[14.3535,35.86885],[14.35176,35.86825],[14.35241,35.86781],[14.35241,35.86729],[14.35381,35.86685],[14.35489,35.86693],[14.35673,35.8663],[14.3577,35.86525],[14.35781,35.86482],[14.35867,35.86447],[14.3591,35.86455],[14.3591,35.86412],[14.36201,35.86201],[14.362,35.86045],[14.36891,35.8571],[14.36999,35.85605],[14.37149,35.85404],[14.37398,35.85341],[14.37721,35.85182],[14.37753,35.85121],[14.38001,35.84946],[14.38012,35.84894],[14.38044,35.8485],[14.38152,35.84901],[14.38315,35.84926],[14.38455,35.8489],[14.38487,35.84838],[14.38595,35.84785],[14.38671,35.84724],[14.39102,35.84564],[14.39285,35.84424],[14.39588,35.84317],[14.39631,35.84273],[14.39673,35.84169],[14.39608,35.84082],[14.39618,35.83865],[14.39737,35.83847],[14.3991,35.83846],[14.39931,35.83863],[14.40007,35.83854],[14.39985,35.83828],[14.40201,35.83644],[14.40201,35.83626],[14.4059,35.83606],[14.40644,35.83579],[14.4073,35.83579],[14.40827,35.83535],[14.41,35.83499],[14.41086,35.83498],[14.41205,35.83436],[14.41356,35.83435],[14.4141,35.83452],[14.41533,35.83412],[14.41683,35.83419],[14.41937,35.83375],[14.42062,35.83318],[14.4214,35.83265],[14.42191,35.83186],[14.42442,35.83037],[14.42544,35.83028],[14.42567,35.82991],[14.42493,35.82992],[14.42493,35.82967],[14.42536,35.82897],[14.42609,35.82838],[14.42761,35.82781],[14.42858,35.82772],[14.4293,35.82829],[14.43034,35.82849],[14.43252,35.8273],[14.43501,35.82556],[14.43574,35.8253]],[[14.55947,35.81954],[14.55919,35.81955],[14.55931,35.81954],[14.55947,35.81954]]]},"properties":{"cYear":2022,"euGroundWaterBodyCode":"MT001","groundWaterBodyName":"MALTA MEAN SEA LEVEL","gwQuantitativeStatusValue":"3","gwChemicalStatusValue":"3"}},{"type":"Feature","geometry":{"type":"Polygon","coordinates":[[[14.34192,35.95479],[14.34476,35.95564],[14.34952,35.95796],[14.35163,35.95925],[14.35451,35.96147],[14.35819,35.96389],[14.36205,35.96538],[14.36748,35.96673],[14.37189,35.96802],[14.37606,35.96961],[14.37908,35.97031],[14.37889,35.97154],[14.37563,35.97015],[14.36862,35.9682],[14.36748,35.96771],[14.36742,35.96751],[14.36717,35.9681],[14.36645,35.96761],[14.36469,35.96745],[14.36403,35.9672],[14.35901,35.96713],[14.35732,35.96668],[14.35713,35.96693],[14.35665,35.96683],[14.35605,35.96619],[14.35544,35.96618],[14.35356,35.96647],[14.35289,35.96715],[14.35247,35.96725],[14.35246,35.96794],[14.35106,35.96935],[14.3502,35.97087],[14.35,35.97273],[14.35024,35.97357],[14.3515,35.97411],[14.35253,35.97475],[14.35283,35.97515],[14.3524,35.97529],[14.34491,35.97389],[14.34285,35.97339],[14.33863,35.97199],[14.33736,35.9712],[14.3361,35.9708],[14.33526,35.96977],[14.33556,35.96953],[14.33604,35.96977],[14.33641,35.96977],[14.33677,35.96953],[14.3369,35.96909],[14.33624,35.96815],[14.33667,35.96771],[14.33721,35.96747],[14.33728,35.96644],[14.33832,35.96512],[14.33857,35.96454],[14.3384,35.96316],[14.33804,35.96272],[14.33653,35.96212],[14.33678,35.96178],[14.33787,35.96129],[14.34023,35.96096],[14.34108,35.96092],[14.34138,35.96116],[14.34156,35.96102],[14.34181,35.96023],[14.3394,35.95934],[14.33783,35.95835],[14.33911,35.95801],[14.3393,35.95738],[14.33924,35.95674],[14.3387,35.95629],[14.3384,35.9558],[14.33853,35.95531],[14.33938,35.95492],[14.33938,35.95458],[14.34023,35.95458],[14.34137,35.95488],[14.34192,35.95479]]]},"properties":{"cYear":2022,"euGroundWaterBodyCode":"MT009","groundWaterBodyName":"MELLIEHA COASTAL","gwQuantitativeStatusValue":"2","gwChemicalStatusValue":"3"}},{"type":"Feature","geometry":{"type":"Polygon","coordinates":[[[14.37105,35.93601],[14.37616,35.93842],[14.38287,35.94194],[14.39348,35.94581],[14.39638,35.94713],[14.39706,35.94766],[14.39768,35.94853],[14.39998,35.95093],[14.39751,35.95028],[14.39783,35.95006],[14.39764,35.9496],[14.39667,35.94942],[14.39536,35.9487],[14.39386,35.94837],[14.3927,35.94854],[14.39152,35.94777],[14.39158,35.94749],[14.39146,35.94734],[14.39008,35.94734],[14.38967,35.94754],[14.38945,35.94731],[14.39052,35.94701],[14.39052,35.9468],[14.38987,35.94614],[14.38946,35.94604],[14.3883,35.94621],[14.38749,35.94616],[14.38517,35.94516],[14.38467,35.94534],[14.38357,35.94612],[14.38319,35.94676],[14.3834,35.94744],[14.38484,35.94872],[14.38549,35.94905],[14.38546,35.94951],[14.38674,35.95038],[14.38836,35.95079],[14.38886,35.95135],[14.38867,35.95148],[14.38942,35.95263],[14.38589,35.95124],[14.38468,35.94953],[14.38355,35.94851],[14.38153,35.94724],[14.37856,35.94598],[14.3771,35.94568],[14.37628,35.94516],[14.375,35.94419],[14.37288,35.94184],[14.37089,35.94046],[14.36958,35.94022],[14.36777,35.93952],[14.36543,35.93917],[14.36213,35.93895],[14.36057,35.93921],[14.35647,35.93915],[14.35453,35.93867],[14.3455,35.93758],[14.3392,35.93725],[14.33896,35.93641],[14.33919,35.93575],[14.33983,35.93514],[14.34065,35.93494],[14.34218,35.93511],[14.34306,35.93486],[14.34475,35.9348],[14.34517,35.9343],[14.34554,35.93412],[14.34592,35.9342],[14.34592,35.93405],[14.34536,35.93379],[14.34478,35.93284],[14.34318,35.93095],[14.34515,35.93104],[14.3549,35.93245],[14.35762,35.93323],[14.36093,35.9339],[14.36387,35.93405],[14.36877,35.93503],[14.37105,35.93601]]]},"properties":{"cYear":2022,"euGroundWaterBodyCode":"MT005","groundWaterBodyName":"PWALES COASTAL","gwQuantitativeStatusValue":"3","gwChemicalStatusValue":"3"}},{"type":"Feature","geometry":{"type":"Polygon","coordinates":[[[14.28339,36.03037],[14.28221,36.02954],[14.2803,36.02864],[14.27851,36.02694],[14.27688,36.02584],[14.27474,36.02524],[14.27356,36.02475],[14.27221,36.02457],[14.2712,36.02399],[14.27155,36.02399],[14.27171,36.0234],[14.27232,36.02297],[14.27338,36.02265],[14.27542,36.02136],[14.27755,36.0214],[14.27786,36.02156],[14.27862,36.02158],[14.28219,36.02151],[14.28455,36.02295],[14.28517,36.02297],[14.28739,36.02365],[14.28873,36.0236],[14.28948,36.02331],[14.29002,36.02289],[14.29035,36.0221],[14.29085,36.02164],[14.29118,36.02091],[14.29176,36.02085],[14.29233,36.0214],[14.29457,36.02194],[14.29537,36.02244],[14.29538,36.023],[14.29494,36.02334],[14.29358,36.0238],[14.29338,36.0242],[14.29349,36.0249],[14.29419,36.02554],[14.29509,36.02569],[14.29441,36.02581],[14.29507,36.02626],[14.29779,36.02642],[14.29891,36.02762],[14.29978,36.028],[14.30033,36.02802],[14.30157,36.02843],[14.30241,36.02918],[14.30321,36.02953],[14.30393,36.02961],[14.30475,36.02929],[14.30576,36.02965],[14.30519,36.02901],[14.3055,36.02898],[14.30977,36.03095],[14.31066,36.0308],[14.31134,36.03045],[14.31172,36.03053],[14.31228,36.03089],[14.31218,36.03109],[14.31243,36.03159],[14.31295,36.03178],[14.31418,36.03157],[14.31717,36.03165],[14.31848,36.03175],[14.3187,36.03217],[14.31819,36.03257],[14.31662,36.03326],[14.31656,36.0336],[14.31625,36.03377],[14.31407,36.03466],[14.31367,36.03517],[14.31376,36.0361],[14.31304,36.03611],[14.31174,36.03657],[14.30909,36.03663],[14.30616,36.03593],[14.30282,36.03431],[14.29106,36.03231],[14.28378,36.03059],[14.28339,36.03037]]]},"properties":{"cYear":2022,"euGroundWaterBodyCode":"MT014","groundWaterBodyName":"GHAJNSIELEM PERCHED","gwQuantitativeStatusValue":"2","gwChemicalStatusValue":"3"}},{"type":"Feature","geometry":{"type":"Polygon","coordinates":[[[14.37895,35.87718],[14.37751,35.87798],[14.37546,35.87848],[14.37384,35.87828],[14.37287,35.87878],[14.37252,35.87803],[14.3715,35.87771],[14.37065,35.87846],[14.37037,35.88011],[14.37048,35.88089],[14.37029,35.88199],[14.3704,35.88228],[14.36989,35.88321],[14.36922,35.88376],[14.36859,35.88476],[14.36846,35.88639],[14.36867,35.88629],[14.36854,35.88647],[14.36921,35.88665],[14.36855,35.8868],[14.36877,35.88688],[14.37183,35.88629],[14.37257,35.88634],[14.37297,35.88641],[14.37345,35.88681],[14.37355,35.8876],[14.37174,35.8881],[14.37174,35.88821],[14.36929,35.88879],[14.36855,35.88912],[14.3678,35.88998],[14.36622,35.8905],[14.36728,35.89086],[14.3676,35.89116],[14.36761,35.89163],[14.3681,35.89193],[14.36927,35.89233],[14.36964,35.89268],[14.37033,35.89393],[14.37072,35.89404],[14.37059,35.89437],[14.37072,35.89435],[14.37077,35.89405],[14.37124,35.89375],[14.37154,35.8932],[14.37265,35.89244],[14.37343,35.89267],[14.37369,35.89292],[14.37411,35.89336],[14.37434,35.89398],[14.37431,35.89435],[14.37513,35.89477],[14.37537,35.89409],[14.37576,35.8936],[14.37584,35.89146],[14.37647,35.8908],[14.37714,35.89042],[14.37798,35.89066],[14.37846,35.89036],[14.37773,35.89018],[14.37726,35.88973],[14.37707,35.8893],[14.37865,35.88828],[14.37973,35.88783],[14.38006,35.88729],[14.38133,35.88783],[14.38137,35.88867],[14.38116,35.88908],[14.38153,35.88943],[14.38149,35.88989],[14.38177,35.89065],[14.38203,35.89085],[14.38257,35.89065],[14.38431,35.89103],[14.38458,35.89123],[14.38429,35.89136],[14.38431,35.89113],[14.38417,35.8914],[14.38446,35.89193],[14.38582,35.8928],[14.38823,35.8934],[14.38845,35.89416],[14.38843,35.89444],[14.38795,35.8946],[14.38595,35.89518],[14.38437,35.89546],[14.3827,35.89554],[14.38084,35.89636],[14.38025,35.89721],[14.38045,35.8975],[14.38111,35.89787],[14.38102,35.89824],[14.38114,35.8988],[14.38104,35.89921],[14.38046,35.89997],[14.3803,35.90043],[14.38039,35.90066],[14.38408,35.90051],[14.38424,35.90061],[14.38402,35.90181],[14.38426,35.90238],[14.38539,35.90319],[14.38635,35.90339],[14.38744,35.90331],[14.38805,35.90358],[14.38908,35.90425],[14.38966,35.90489],[14.39063,35.9049],[14.39087,35.90412],[14.39158,35.90393],[14.39312,35.90472],[14.39331,35.90506],[14.3956,35.90519],[14.39757,35.90433],[14.39856,35.9036],[14.39903,35.90349],[14.3997,35.90362],[14.39979,35.90395],[14.39921,35.90461],[14.39797,35.90501],[14.39736,35.90544],[14.39758,35.90615],[14.39844,35.90741],[14.39928,35.90829],[14.39935,35.90872],[14.39972,35.90855],[14.40021,35.90877],[14.4003,35.9091],[14.39977,35.90916],[14.39894,35.90888],[14.39686,35.90773],[14.39508,35.90712],[14.39275,35.90684],[14.38836,35.90583],[14.38762,35.90579],[14.38856,35.90617],[14.38587,35.90671],[14.38314,35.90641],[14.37939,35.90531],[14.3787,35.90471],[14.37803,35.90453],[14.37784,35.9041],[14.37838,35.9038],[14.37823,35.90365],[14.37733,35.90402],[14.3769,35.90437],[14.37552,35.90433],[14.37476,35.90382],[14.37453,35.9033],[14.37334,35.90434],[14.37244,35.90471],[14.37147,35.90468],[14.37058,35.90501],[14.37014,35.90494],[14.36877,35.90407],[14.36892,35.90328],[14.36884,35.90294],[14.36728,35.90222],[14.36566,35.90262],[14.36418,35.90335],[14.36325,35.90409],[14.36214,35.90423],[14.361,35.90366],[14.36088,35.9022],[14.36012,35.90103],[14.35925,35.90058],[14.35866,35.89975],[14.35876,35.89937],[14.35923,35.89896],[14.36056,35.89931],[14.36074,35.89928],[14.36093,35.89887],[14.35897,35.89788],[14.35879,35.89758],[14.35867,35.89641],[14.35821,35.89656],[14.35801,35.89723],[14.3574,35.89786],[14.35592,35.89826],[14.35537,35.89867],[14.35382,35.90023],[14.35252,35.90108],[14.35237,35.90156],[14.3514,35.90185],[14.34665,35.90215],[14.34651,35.90233],[14.34665,35.90256],[14.34806,35.90343],[14.34782,35.90392],[14.34745,35.90399],[14.3451,35.90401],[14.34442,35.90363],[14.34388,35.90272],[14.34279,35.90208],[14.34229,35.90158],[14.34229,35.9011],[14.34318,35.90054],[14.34563,35.89986],[14.34744,35.89916],[14.34776,35.89901],[14.34777,35.89883],[14.34509,35.89899],[14.34347,35.89946],[14.34305,35.89972],[14.3425,35.90009],[14.3417,35.90094],[14.3412,35.90307],[14.34056,35.90288],[14.34039,35.90202],[14.3394,35.90051],[14.33768,35.89911],[14.33778,35.89832],[14.33755,35.89806],[14.33756,35.89769],[14.33775,35.89731],[14.33845,35.89709],[14.33991,35.89786],[14.33975,35.89595],[14.34082,35.89536],[14.34193,35.89529],[14.34247,35.89571],[14.34275,35.89556],[14.34232,35.89357],[14.34271,35.89279],[14.34428,35.89228],[14.34473,35.89284],[14.34505,35.89285],[14.3452,35.89251],[14.34557,35.8924],[14.34727,35.89223],[14.34709,35.89197],[14.3459,35.89166],[14.3443,35.89086],[14.34403,35.89037],[14.34409,35.88954],[14.34489,35.88839],[14.34438,35.88861],[14.34401,35.88909],[14.34233,35.89043],[14.34181,35.8914],[14.33962,35.89265],[14.33757,35.89447],[14.33682,35.89487],[14.33739,35.89383],[14.33786,35.89331],[14.33842,35.89305],[14.33932,35.89141],[14.33999,35.88962],[14.34118,35.88772],[14.34142,35.88664],[14.34129,35.88622],[14.34218,35.88526],[14.34233,35.88415],[14.34222,35.88402],[14.34241,35.88356],[14.34332,35.88276],[14.34395,35.88274],[14.34416,35.88257],[14.34435,35.88196],[14.34385,35.88096],[14.34445,35.88045],[14.34575,35.88053],[14.34703,35.88098],[14.34787,35.88108],[14.34917,35.88082],[14.34968,35.88087],[14.35091,35.88131],[14.35147,35.88188],[14.35165,35.88258],[14.35185,35.8828],[14.35337,35.88152],[14.35424,35.88147],[14.35475,35.88216],[14.3552,35.88236],[14.35541,35.88204],[14.35468,35.8796],[14.35481,35.87872],[14.35512,35.87833],[14.35623,35.87817],[14.35681,35.87756],[14.35774,35.8773],[14.35966,35.8777],[14.36047,35.87761],[14.36087,35.8771],[14.36148,35.87561],[14.36312,35.87396],[14.36373,35.87375],[14.36376,35.87353],[14.36463,35.87336],[14.36609,35.87234],[14.36831,35.87267],[14.37088,35.87071],[14.37082,35.87034],[14.36983,35.87061],[14.36917,35.87048],[14.36819,35.86933],[14.36804,35.86872],[14.36747,35.86901],[14.36696,35.86874],[14.36746,35.86972],[14.36746,35.8705],[14.3667,35.87059],[14.36566,35.87027],[14.36241,35.87025],[14.36069,35.87056],[14.3591,35.87109],[14.35864,35.87128],[14.35834,35.87162],[14.35789,35.8716],[14.35768,35.87143],[14.3578,35.87121],[14.3585,35.87099],[14.35871,35.87053],[14.35882,35.86895],[14.35972,35.8688],[14.36075,35.86803],[14.36078,35.86766],[14.36052,35.86732],[14.36055,35.86713],[14.36127,35.86686],[14.36134,35.86647],[14.36197,35.86594],[14.36279,35.86563],[14.36388,35.8649],[14.36397,35.86458],[14.36491,35.86337],[14.36767,35.86107],[14.36948,35.85998],[14.37072,35.85965],[14.37108,35.85928],[14.37196,35.85887],[14.37251,35.85819],[14.37284,35.85805],[14.37415,35.85635],[14.37487,35.85603],[14.37544,35.85599],[14.37692,35.85529],[14.37813,35.85425],[14.37856,35.85413],[14.37919,35.85366],[14.37967,35.85355],[14.38144,35.85205],[14.38322,35.85181],[14.38545,35.8518],[14.38626,35.8515],[14.38766,35.85056],[14.38851,35.84942],[14.3918,35.8476],[14.39305,35.84672],[14.39386,35.84588],[14.39769,35.8446],[14.39799,35.84431],[14.39798,35.84375],[14.3984,35.84271],[14.39816,35.8422],[14.39815,35.84148],[14.39834,35.84144],[14.39918,35.84219],[14.40046,35.84239],[14.40214,35.84134],[14.40277,35.8412],[14.40483,35.84117],[14.40644,35.84097],[14.40944,35.84031],[14.41213,35.84025],[14.41358,35.84031],[14.41488,35.84062],[14.41639,35.84107],[14.41775,35.84181],[14.41794,35.84224],[14.41796,35.8431],[14.41706,35.84361],[14.41661,35.84371],[14.41643,35.8436],[14.41574,35.84392],[14.41525,35.8448],[14.41554,35.84601],[14.41519,35.84742],[14.41524,35.84823],[14.41567,35.84901],[14.41681,35.85014],[14.41689,35.85051],[14.41672,35.85065],[14.41602,35.85088],[14.41503,35.85082],[14.41429,35.85048],[14.41388,35.8501],[14.41233,35.84931],[14.41122,35.84746],[14.4101,35.84647],[14.40992,35.84636],[14.40903,35.84651],[14.40868,35.84695],[14.40795,35.84875],[14.40626,35.84911],[14.4071,35.8497],[14.40796,35.84987],[14.40839,35.85016],[14.40843,35.85053],[14.40876,35.85094],[14.40862,35.85136],[14.40786,35.85167],[14.40617,35.85191],[14.40493,35.85182],[14.40478,35.85194],[14.40477,35.8522],[14.4051,35.85251],[14.4084,35.85483],[14.40889,35.85532],[14.40871,35.85555],[14.40823,35.85582],[14.40705,35.85475],[14.40701,35.85514],[14.40656,35.85577],[14.40463,35.85624],[14.40199,35.85783],[14.40021,35.85834],[14.39949,35.85817],[14.39922,35.85775],[14.39937,35.8571],[14.39964,35.85691],[14.39979,35.85645],[14.39793,35.8564],[14.3965,35.85603],[14.3953,35.85609],[14.39541,35.85636],[14.39681,35.85719],[14.39711,35.85753],[14.3973,35.85827],[14.39721,35.85836],[14.39698,35.8582],[14.3968,35.85843],[14.39768,35.86014],[14.39891,35.86074],[14.39988,35.86089],[14.40212,35.86081],[14.40357,35.86105],[14.40392,35.86085],[14.40336,35.86055],[14.40364,35.86045],[14.40362,35.86017],[14.40628,35.859],[14.40699,35.85888],[14.40862,35.85899],[14.4097,35.85928],[14.41037,35.85983],[14.41023,35.86051],[14.40973,35.86097],[14.40918,35.86209],[14.40781,35.86218],[14.4063,35.86155],[14.40661,35.86265],[14.407,35.86319],[14.40781,35.86399],[14.4092,35.86484],[14.4098,35.86557],[14.40977,35.86666],[14.4095,35.86715],[14.40885,35.8672],[14.40673,35.86656],[14.4061,35.86654],[14.40503,35.86667],[14.40388,35.86715],[14.40283,35.86633],[14.40102,35.86734],[14.40012,35.86838],[14.3994,35.86878],[14.39829,35.86876],[14.39727,35.86928],[14.39672,35.86947],[14.39614,35.86944],[14.3955,35.8698],[14.39582,35.87033],[14.39847,35.87063],[14.39957,35.87111],[14.39991,35.87148],[14.4001,35.87222],[14.40036,35.8725],[14.40238,35.87234],[14.40349,35.87248],[14.40528,35.87304],[14.40721,35.87333],[14.40788,35.87367],[14.40788,35.87388],[14.40724,35.87442],[14.40464,35.87448],[14.40351,35.87474],[14.40263,35.87546],[14.40204,35.87658],[14.40219,35.87702],[14.40368,35.87789],[14.40388,35.87885],[14.40356,35.8792],[14.40201,35.87961],[14.40173,35.87993],[14.40168,35.88067],[14.40204,35.88102],[14.40192,35.88217],[14.40373,35.8833],[14.40432,35.88392],[14.40453,35.8846],[14.40433,35.88518],[14.40458,35.88611],[14.40451,35.8869],[14.40381,35.88753],[14.40293,35.88792],[14.40215,35.888],[14.4017,35.88782],[14.40097,35.88675],[14.39976,35.88627],[14.39974,35.88556],[14.39883,35.88587],[14.39836,35.88534],[14.39795,35.88515],[14.39719,35.88506],[14.39567,35.88521],[14.39487,35.88483],[14.39383,35.88469],[14.39348,35.88439],[14.39283,35.88431],[14.39209,35.88443],[14.39163,35.88491],[14.39167,35.88551],[14.39229,35.88676],[14.39263,35.88712],[14.39367,35.88774],[14.39782,35.88957],[14.39894,35.89049],[14.39976,35.89069],[14.40179,35.89179],[14.40222,35.89241],[14.40222,35.89294],[14.40191,35.89325],[14.40193,35.89343],[14.40242,35.89428],[14.4032,35.89495],[14.40343,35.89546],[14.40334,35.89578],[14.40271,35.89611],[14.40184,35.89611],[14.39956,35.89578],[14.39902,35.89553],[14.39802,35.89567],[14.39807,35.89579],[14.39744,35.8956],[14.39686,35.89514],[14.39596,35.8939],[14.39712,35.89431],[14.3956,35.89226],[14.39472,35.89174],[14.39318,35.89136],[14.39193,35.89072],[14.39148,35.89026],[14.39097,35.88885],[14.3899,35.88731],[14.39001,35.88744],[14.39005,35.88733],[14.38811,35.88591],[14.38731,35.88598],[14.38678,35.88633],[14.38591,35.88627],[14.38561,35.88661],[14.38426,35.8869],[14.38357,35.88672],[14.38301,35.88633],[14.38243,35.88472],[14.38194,35.88384],[14.38132,35.88149],[14.38142,35.87966],[14.38159,35.87954],[14.38153,35.87924],[14.38171,35.87891],[14.38254,35.87803],[14.3833,35.87757],[14.38372,35.87701],[14.38315,35.87578],[14.38305,35.87512],[14.38324,35.87281],[14.38262,35.87239],[14.38249,35.87193],[14.38319,35.87072],[14.384,35.87026],[14.38493,35.87041],[14.38627,35.86878],[14.38627,35.86849],[14.38591,35.86814],[14.38376,35.86845],[14.38326,35.86797],[14.38307,35.86744],[14.38352,35.86631],[14.384,35.86568],[14.38559,35.86461],[14.38627,35.86435],[14.38625,35.86421],[14.38462,35.8641],[14.38402,35.86364],[14.38364,35.86296],[14.38337,35.86302],[14.38197,35.86486],[14.38183,35.8655],[14.38157,35.86567],[14.3812,35.8654],[14.38107,35.86547],[14.38113,35.86646],[14.37993,35.86702],[14.37913,35.86705],[14.37932,35.8674],[14.38064,35.86799],[14.38069,35.86905],[14.3802,35.87046],[14.37946,35.87125],[14.37925,35.87209],[14.37929,35.87253],[14.38006,35.87414],[14.38005,35.87509],[14.3799,35.8755],[14.37937,35.87593],[14.37939,35.87674],[14.37895,35.87718]],[[14.36827,35.88647],[14.36821,35.88636],[14.36823,35.88648],[14.36827,35.88647]],[[14.36833,35.88467],[14.36787,35.88548],[14.36796,35.88568],[14.36795,35.88537],[14.36833,35.88467]],[[14.36865,35.88452],[14.36864,35.88458],[14.36866,35.88452],[14.36865,35.88452]],[[14.37905,35.86697],[14.379,35.86714],[14.37905,35.86727],[14.37905,35.86697]]]},"properties":{"cYear":2022,"euGroundWaterBodyCode":"MT002","groundWaterBodyName":"RABAT-DINGLI PERCHED","gwQuantitativeStatusValue":"2","gwChemicalStatusValue":"3"}},{"type":"Feature","geometry":{"type":"Polygon","coordinates":[[[14.3384,35.94774],[14.33956,35.948],[14.34071,35.94864],[14.34328,35.94922],[14.34451,35.94912],[14.34664,35.94851],[14.34793,35.94862],[14.35334,35.94927],[14.35231,35.94947],[14.35134,35.94989],[14.35791,35.95044],[14.36486,35.95178],[14.3641,35.95078],[14.36442,35.95073],[14.36532,35.95152],[14.36616,35.95121],[14.36693,35.95132],[14.3695,35.95211],[14.37284,35.95369],[14.37387,35.95354],[14.37663,35.95502],[14.37715,35.95502],[14.38024,35.95597],[14.38171,35.95702],[14.38261,35.9574],[14.38415,35.95923],[14.38556,35.96033],[14.38503,35.96117],[14.38574,35.9619],[14.38651,35.96232],[14.38747,35.96259],[14.38844,35.96265],[14.3894,35.96291],[14.39044,35.96265],[14.39308,35.96324],[14.39301,35.96361],[14.3932,35.96413],[14.39119,35.96532],[14.38925,35.96563],[14.38745,35.96489],[14.38642,35.96483],[14.38758,35.96562],[14.38976,35.96647],[14.3888,35.96657],[14.38648,35.96635],[14.38692,35.96687],[14.38563,35.96802],[14.38479,35.96801],[14.38402,35.96665],[14.38274,35.96529],[14.38249,35.96471],[14.38178,35.96445],[14.37991,35.96465],[14.37966,35.96444],[14.37897,35.96083],[14.37738,35.95915],[14.37738,35.95847],[14.37681,35.95774],[14.37577,35.95862],[14.37615,35.95925],[14.37692,35.96004],[14.37737,35.95988],[14.37794,35.96192],[14.37748,35.96244],[14.37715,35.96338],[14.37701,35.96474],[14.37759,35.96464],[14.3783,35.96516],[14.37881,35.96595],[14.38009,35.96637],[14.37996,35.967],[14.37911,35.96783],[14.37724,35.96876],[14.37473,35.96802],[14.37306,35.96739],[14.37306,35.96671],[14.37378,35.96551],[14.37346,35.96535],[14.37255,35.96535],[14.37184,35.96592],[14.37075,35.96591],[14.36972,35.96544],[14.36985,35.96434],[14.36947,35.96366],[14.36961,35.96304],[14.37206,35.96216],[14.36918,35.96047],[14.36893,35.95953],[14.36835,35.95937],[14.36782,35.96026],[14.36788,35.96104],[14.36748,35.96297],[14.36579,35.96412],[14.36547,35.96469],[14.36405,35.96479],[14.36309,35.96405],[14.36342,35.96322],[14.36259,35.96165],[14.36201,35.96164],[14.36155,35.96232],[14.36058,35.96294],[14.35845,35.96293],[14.35742,35.96256],[14.35717,35.96162],[14.3575,35.96063],[14.35518,35.96146],[14.35338,35.96014],[14.3521,35.95951],[14.34992,35.95809],[14.35044,35.95746],[14.35057,35.95694],[14.34999,35.95683],[14.34915,35.95693],[14.34723,35.95588],[14.34723,35.95536],[14.34562,35.95545],[14.34478,35.95514],[14.3444,35.95451],[14.34362,35.95513],[14.34266,35.95492],[14.34351,35.95299],[14.34153,35.95105],[14.34128,35.95015],[14.33955,35.94847],[14.3384,35.94774]]]},"properties":{"cYear":2022,"euGroundWaterBodyCode":"MT008","groundWaterBodyName":"MELLIEHA PERCHED","gwQuantitativeStatusValue":"2","gwChemicalStatusValue":"3"}},{"type":"Feature","geometry":{"type":"Polygon","coordinates":[[[14.36687,35.99822],[14.36639,35.99758],[14.36658,35.99675],[14.36682,35.99635],[14.36646,35.9963],[14.365,35.99674],[14.36421,35.99727],[14.36336,35.99742],[14.36198,35.99643],[14.36199,35.9952],[14.36218,35.99452],[14.36254,35.99403],[14.36503,35.99321],[14.36558,35.99267],[14.36558,35.99228],[14.36534,35.99198],[14.36371,35.99139],[14.36268,35.99202],[14.36195,35.99207],[14.36129,35.99182],[14.3605,35.99186],[14.35996,35.99152],[14.35943,35.9898],[14.35864,35.98945],[14.35798,35.98955],[14.35731,35.98935],[14.35646,35.98944],[14.35592,35.98983],[14.35585,35.99096],[14.35542,35.99135],[14.35396,35.99198],[14.35354,35.99188],[14.35257,35.99129],[14.35194,35.98805],[14.3517,35.9876],[14.35194,35.98731],[14.35122,35.98677],[14.3508,35.98677],[14.34927,35.98798],[14.34848,35.98803],[14.34848,35.98823],[14.34866,35.98828],[14.34842,35.98837],[14.34788,35.98832],[14.3477,35.98813],[14.34606,35.98841],[14.34588,35.98826],[14.34649,35.98768],[14.34637,35.98743],[14.34613,35.98738],[14.34692,35.98631],[14.34614,35.98596],[14.34559,35.9861],[14.34492,35.98679],[14.3442,35.98664],[14.34468,35.98693],[14.3448,35.98708],[14.34468,35.98723],[14.34414,35.98683],[14.34341,35.98673],[14.34256,35.98722],[14.34117,35.98721],[14.3402,35.98701],[14.33881,35.98602],[14.33839,35.98627],[14.33797,35.98587],[14.33778,35.98612],[14.3379,35.98626],[14.3376,35.98671],[14.33638,35.98734],[14.33347,35.98767],[14.33287,35.98737],[14.3319,35.98717],[14.33136,35.98726],[14.33117,35.98756],[14.33075,35.98716],[14.3299,35.98741],[14.32881,35.98809],[14.32862,35.98863],[14.32874,35.98941],[14.32861,35.98956],[14.32952,35.98991],[14.32933,35.99015],[14.32867,35.9898],[14.32819,35.98946],[14.32813,35.98897],[14.32783,35.98896],[14.32789,35.98877],[14.32813,35.98882],[14.32814,35.98813],[14.3279,35.98793],[14.32802,35.98774],[14.32772,35.98779],[14.32736,35.98744],[14.327,35.98734],[14.32694,35.98705],[14.3273,35.98705],[14.32785,35.98666],[14.32888,35.98642],[14.32961,35.98652],[14.33203,35.9858],[14.33331,35.98507],[14.33441,35.98404],[14.33436,35.98301],[14.33388,35.98217],[14.3328,35.98153],[14.33189,35.98138],[14.33055,35.98196],[14.33031,35.98191],[14.32972,35.98024],[14.32924,35.9794],[14.32919,35.97887],[14.3281,35.97842],[14.32576,35.9763],[14.32571,35.97537],[14.32637,35.97537],[14.32637,35.97517],[14.32595,35.97483],[14.32535,35.97473],[14.32469,35.97369],[14.32319,35.97192],[14.32271,35.97167],[14.32272,35.97123],[14.32418,35.9704],[14.32623,35.97061],[14.32761,35.97179],[14.32937,35.972],[14.33391,35.97197],[14.3353,35.97144],[14.33633,35.97159],[14.34079,35.97372],[14.34176,35.97407],[14.34309,35.97422],[14.3455,35.97497],[14.34646,35.97595],[14.34616,35.97639],[14.34846,35.97636],[14.3516,35.97657],[14.35469,35.97736],[14.35722,35.97885],[14.35753,35.97757],[14.35849,35.97812],[14.35891,35.97856],[14.36012,35.97901],[14.36018,35.9794],[14.36108,35.98024],[14.36169,35.98004],[14.36416,35.98163],[14.36414,35.9832],[14.36486,35.98413],[14.36824,35.98552],[14.36976,35.98553],[14.37042,35.98528],[14.37103,35.98538],[14.37513,35.98717],[14.37579,35.98776],[14.37566,35.98884],[14.37523,35.98962],[14.37286,35.99103],[14.37243,35.99187],[14.37249,35.99246],[14.37206,35.99275],[14.37248,35.99329],[14.3704,35.99544],[14.37016,35.99578],[14.37009,35.99622],[14.36876,35.99695],[14.36833,35.99773],[14.36826,35.99837],[14.36687,35.99822]]]},"properties":{"cYear":2022,"euGroundWaterBodyCode":"MT010","groundWaterBodyName":"MARFA COASTAL","gwQuantitativeStatusValue":"3","gwChemicalStatusValue":"3"}},{"type":"Feature","geometry":{"type":"Polygon","coordinates":[[[14.21578,36.02418],[14.21568,36.02412],[14.21672,36.02352],[14.21716,36.024],[14.21873,36.0238],[14.21909,36.02292],[14.21805,36.02233],[14.21879,36.02125],[14.22056,36.02148],[14.22116,36.02088],[14.2213,36.02053],[14.22382,36.02099],[14.22397,36.02134],[14.22635,36.02192],[14.22827,36.02203],[14.23005,36.0213],[14.23212,36.02117],[14.23301,36.02069],[14.23271,36.02022],[14.23597,36.01996],[14.23642,36.0196],[14.2422,36.01945],[14.25049,36.01868],[14.25286,36.01807],[14.25345,36.01783],[14.25389,36.01545],[14.25463,36.0145],[14.25596,36.01413],[14.25715,36.01448],[14.25848,36.01447],[14.25922,36.01423],[14.26055,36.01303],[14.26129,36.0116],[14.26173,36.01172],[14.26248,36.01266],[14.26396,36.0136],[14.26663,36.01418],[14.27242,36.01664],[14.27094,36.01724],[14.27212,36.01723],[14.27242,36.01771],[14.27213,36.01842],[14.27198,36.01937],[14.27095,36.01985],[14.27095,36.02057],[14.27169,36.02056],[14.27213,36.01985],[14.27257,36.01854],[14.27316,36.01818],[14.27301,36.01758],[14.2736,36.01699],[14.27523,36.01686],[14.27627,36.01661],[14.27686,36.01625],[14.27775,36.01613],[14.2782,36.01648],[14.27909,36.01624],[14.27953,36.01647],[14.28013,36.01789],[14.28131,36.018],[14.2828,36.01764],[14.2828,36.01882],[14.28519,36.02344],[14.28401,36.02666],[14.28387,36.02974],[14.28966,36.03208],[14.29649,36.03358],[14.30183,36.03451],[14.30708,36.03479],[14.30695,36.03428],[14.30653,36.03365],[14.30568,36.03278],[14.30534,36.03163],[14.30534,36.03047],[14.30694,36.02917],[14.30607,36.02651],[14.30757,36.02634],[14.30934,36.02645],[14.30982,36.02684],[14.3132,36.02694],[14.31416,36.02681],[14.31512,36.02641],[14.3156,36.02602],[14.31592,36.02641],[14.31705,36.02653],[14.31753,36.0264],[14.31721,36.02576],[14.31833,36.02575],[14.31913,36.026],[14.32026,36.02573],[14.32154,36.02637],[14.3201,36.02677],[14.32136,36.02687],[14.32187,36.0265],[14.32187,36.02701],[14.32219,36.02688],[14.32219,36.02791],[14.32476,36.02815],[14.32781,36.028],[14.32734,36.02864],[14.32814,36.02915],[14.3291,36.02902],[14.32911,36.02979],[14.33296,36.03079],[14.33377,36.03079],[14.33329,36.0313],[14.33457,36.03078],[14.33361,36.03143],[14.33457,36.03104],[14.33506,36.03155],[14.33602,36.03219],[14.33619,36.03334],[14.33587,36.03528],[14.33459,36.03644],[14.333,36.03877],[14.33235,36.03878],[14.33252,36.03916],[14.32979,36.04111],[14.3298,36.04137],[14.32771,36.04318],[14.32275,36.04721],[14.32243,36.04811],[14.32163,36.04915],[14.32067,36.04992],[14.31827,36.05033],[14.31714,36.04995],[14.31698,36.04944],[14.31649,36.04905],[14.31585,36.04944],[14.31569,36.04996],[14.31425,36.05023],[14.31409,36.05049],[14.31425,36.05087],[14.31409,36.05164],[14.31345,36.05165],[14.31201,36.0523],[14.31169,36.05295],[14.31233,36.05371],[14.31169,36.05423],[14.31186,36.055],[14.3117,36.05629],[14.31187,36.05719],[14.31154,36.05732],[14.31075,36.05862],[14.30994,36.05914],[14.30866,36.0594],[14.30609,36.05891],[14.304,36.05776],[14.30303,36.05777],[14.30094,36.05701],[14.29982,36.05702],[14.29966,36.05779],[14.29886,36.05857],[14.29886,36.05921],[14.29806,36.05947],[14.29742,36.06012],[14.29646,36.06064],[14.29581,36.06065],[14.2963,36.06116],[14.29549,36.06104],[14.29357,36.06182],[14.29245,36.06376],[14.29245,36.0644],[14.29197,36.06479],[14.29101,36.06506],[14.29085,36.0657],[14.29021,36.06545],[14.28908,36.06597],[14.28844,36.06533],[14.2878,36.06508],[14.28682,36.06303],[14.28602,36.06277],[14.28602,36.06226],[14.28586,36.062],[14.28329,36.06189],[14.2828,36.06164],[14.28184,36.06177],[14.2804,36.06255],[14.27975,36.06307],[14.27927,36.06295],[14.27879,36.06308],[14.27799,36.06437],[14.27767,36.0645],[14.27767,36.06489],[14.27687,36.06476],[14.27623,36.0649],[14.27543,36.06555],[14.27462,36.06568],[14.27366,36.06556],[14.27318,36.06646],[14.27238,36.06634],[14.27222,36.06698],[14.27158,36.06789],[14.27174,36.0684],[14.2711,36.06995],[14.26982,36.07073],[14.2695,36.07163],[14.26789,36.07203],[14.26806,36.07216],[14.26758,36.07319],[14.26613,36.07333],[14.26597,36.07294],[14.26468,36.07295],[14.26436,36.07321],[14.26437,36.07373],[14.26404,36.07399],[14.2634,36.07386],[14.26228,36.07425],[14.26212,36.07374],[14.26147,36.07349],[14.26163,36.07284],[14.26067,36.07285],[14.26018,36.07247],[14.25986,36.07157],[14.25873,36.07145],[14.25793,36.07171],[14.25777,36.07248],[14.25794,36.0739],[14.25842,36.07454],[14.25826,36.07531],[14.2573,36.07635],[14.25554,36.07661],[14.25522,36.07687],[14.25361,36.07676],[14.25329,36.07689],[14.25248,36.07638],[14.25184,36.07664],[14.25152,36.07703],[14.25184,36.07741],[14.2504,36.07896],[14.25088,36.07947],[14.25137,36.0796],[14.25169,36.07998],[14.2496,36.08],[14.24896,36.07974],[14.24896,36.08],[14.24815,36.08001],[14.24815,36.07936],[14.24847,36.07872],[14.24735,36.07847],[14.24751,36.07963],[14.24703,36.08027],[14.24623,36.07976],[14.24623,36.08015],[14.24398,36.08016],[14.24253,36.08069],[14.23884,36.08097],[14.23739,36.08149],[14.23659,36.08201],[14.23659,36.08227],[14.23579,36.08227],[14.23466,36.08138],[14.23353,36.08139],[14.23305,36.08178],[14.23209,36.08204],[14.23177,36.0823],[14.23064,36.08231],[14.23113,36.08192],[14.23,36.08179],[14.22919,36.08051],[14.22807,36.08116],[14.22598,36.08105],[14.22422,36.0817],[14.22373,36.08222],[14.22197,36.08223],[14.22261,36.08094],[14.22212,36.08017],[14.221,36.07992],[14.21907,36.07967],[14.21794,36.07994],[14.2165,36.08072],[14.2165,36.08033],[14.20878,36.07974],[14.2046,36.07848],[14.20283,36.07861],[14.20187,36.07746],[14.20171,36.07669],[14.20106,36.07618],[14.19994,36.0758],[14.19913,36.07478],[14.19816,36.07427],[14.19752,36.07427],[14.19608,36.07479],[14.19559,36.0748],[14.19383,36.07455],[14.1935,36.07404],[14.19238,36.07392],[14.19029,36.07444],[14.18981,36.07419],[14.18708,36.0742],[14.1866,36.07459],[14.1856,36.0746],[14.18463,36.07408],[14.18347,36.06974],[14.18501,36.06695],[14.18462,36.06557],[14.18481,36.0648],[14.18731,36.06417],[14.18943,36.06415],[14.19058,36.06291],[14.19173,36.0609],[14.19096,36.05967],[14.19211,36.05797],[14.19133,36.05566],[14.18941,36.0549],[14.18825,36.05383],[14.18863,36.05352],[14.18844,36.05306],[14.18786,36.0526],[14.18805,36.05214],[14.18863,36.05198],[14.18844,36.05152],[14.18959,36.0512],[14.18997,36.05043],[14.18978,36.04874],[14.18881,36.04812],[14.19208,36.04826],[14.19208,36.04733],[14.19304,36.04687],[14.19323,36.04625],[14.19227,36.04548],[14.19073,36.04549],[14.18977,36.04581],[14.18938,36.04566],[14.18957,36.04457],[14.18899,36.04273],[14.18938,36.04165],[14.18956,36.0401],[14.18899,36.03962],[14.18706,36.03704],[14.18609,36.03658],[14.1884,36.03456],[14.19224,36.03392],[14.19359,36.0333],[14.19551,36.0339],[14.19739,36.03395],[14.19847,36.03383],[14.19917,36.03357],[14.19994,36.03465],[14.20379,36.03462],[14.20398,36.03401],[14.20513,36.03354],[14.20687,36.03384],[14.20821,36.03352],[14.20936,36.0332],[14.20936,36.03259],[14.21013,36.03181],[14.21032,36.03135],[14.21148,36.0315],[14.21301,36.03102],[14.2134,36.02994],[14.21339,36.02917],[14.21474,36.0304],[14.21573,36.0302],[14.21628,36.0307],[14.21725,36.03038],[14.21705,36.02992],[14.21551,36.02962],[14.21469,36.02898],[14.21563,36.02742],[14.21428,36.0283],[14.21204,36.02795],[14.21316,36.02697],[14.21358,36.0264],[14.21416,36.02608],[14.21578,36.02418]],[[14.22595,36.02953],[14.22607,36.0294],[14.22598,36.02949],[14.22595,36.02953]]]},"properties":{"cYear":2022,"euGroundWaterBodyCode":"MT013","groundWaterBodyName":"GOZO MEAN SEA LEVEL","gwQuantitativeStatusValue":"3","gwChemicalStatusValue":"3"}},{"type":"Feature","geometry":{"type":"Polygon","coordinates":[[[14.28953,36.06404],[14.28907,36.06337],[14.28916,36.06281],[14.28901,36.06248],[14.28793,36.06151],[14.28733,36.06056],[14.2877,36.05859],[14.28835,36.05827],[14.28885,36.05779],[14.28856,36.05715],[14.2879,36.05659],[14.28789,36.05615],[14.2889,36.05518],[14.29009,36.05444],[14.29053,36.05395],[14.29079,36.05336],[14.29032,36.05219],[14.29037,36.05129],[14.29128,36.0483],[14.29097,36.04474],[14.29002,36.04366],[14.28867,36.04339],[14.28799,36.04363],[14.28731,36.04425],[14.28633,36.04485],[14.28579,36.0457],[14.28518,36.04613],[14.28457,36.0463],[14.28384,36.04597],[14.28375,36.04488],[14.28419,36.04437],[14.28631,36.04056],[14.28666,36.03918],[14.28599,36.03815],[14.28505,36.03765],[14.28457,36.03768],[14.28371,36.03789],[14.28179,36.0396],[14.28148,36.03957],[14.28143,36.03876],[14.28207,36.03667],[14.28298,36.03568],[14.28336,36.03542],[14.28414,36.03527],[14.28449,36.03555],[14.28682,36.03651],[14.28881,36.03674],[14.29001,36.03656],[14.29025,36.03636],[14.29221,36.03648],[14.29334,36.03635],[14.29553,36.03568],[14.29757,36.03611],[14.29959,36.03589],[14.30008,36.03608],[14.30066,36.03596],[14.30738,36.03715],[14.3085,36.03776],[14.30919,36.03783],[14.30942,36.03761],[14.30934,36.03702],[14.30896,36.03662],[14.31177,36.03663],[14.31251,36.03718],[14.31258,36.0374],[14.31262,36.03782],[14.31246,36.03811],[14.31264,36.03886],[14.31252,36.03931],[14.3128,36.03979],[14.31427,36.03957],[14.315,36.03984],[14.31713,36.03951],[14.31873,36.03871],[14.32118,36.03787],[14.32202,36.03651],[14.32152,36.0359],[14.32221,36.03583],[14.32352,36.03618],[14.32441,36.03603],[14.32519,36.03558],[14.32646,36.03556],[14.32682,36.03609],[14.32645,36.03657],[14.32603,36.0377],[14.32539,36.03832],[14.32352,36.03952],[14.32288,36.04021],[14.32196,36.04078],[14.32143,36.04146],[14.31872,36.04168],[14.31781,36.04273],[14.31703,36.04311],[14.31679,36.04339],[14.31773,36.04579],[14.3175,36.04596],[14.3166,36.04583],[14.31532,36.04537],[14.31401,36.04519],[14.3136,36.04539],[14.31288,36.04543],[14.31123,36.04528],[14.31018,36.0445],[14.30971,36.0435],[14.30811,36.04396],[14.30587,36.04368],[14.30489,36.04321],[14.30447,36.04283],[14.30412,36.04213],[14.304,36.04148],[14.30362,36.04146],[14.30349,36.04197],[14.30255,36.04285],[14.30132,36.0432],[14.30143,36.0435],[14.30198,36.04384],[14.30409,36.04435],[14.30673,36.04586],[14.30746,36.04605],[14.3078,36.04599],[14.3115,36.04842],[14.31185,36.049],[14.31208,36.05012],[14.31161,36.05063],[14.31042,36.05129],[14.30918,36.0515],[14.30895,36.05167],[14.30716,36.05167],[14.30657,36.05128],[14.3062,36.05168],[14.30761,36.052],[14.30865,36.05252],[14.3096,36.05484],[14.30964,36.0554],[14.30955,36.05582],[14.30928,36.0561],[14.30928,36.05647],[14.30813,36.05699],[14.3072,36.05705],[14.30568,36.05665],[14.30439,36.05596],[14.30415,36.05568],[14.30224,36.05517],[14.30186,36.05492],[14.30143,36.05392],[14.30075,36.05292],[14.30002,36.05236],[14.29889,36.05097],[14.29851,36.04918],[14.29894,36.04828],[14.29889,36.04746],[14.29832,36.04632],[14.29824,36.04553],[14.29718,36.0442],[14.29625,36.04241],[14.2958,36.0423],[14.29488,36.04262],[14.29381,36.04269],[14.29164,36.04218],[14.29171,36.04249],[14.29402,36.04434],[14.29472,36.04521],[14.29477,36.04563],[14.29571,36.04657],[14.29608,36.04783],[14.29584,36.04789],[14.29568,36.04817],[14.29526,36.04809],[14.29513,36.04843],[14.29588,36.04957],[14.29596,36.05025],[14.29589,36.05056],[14.29481,36.05135],[14.29481,36.05158],[14.29613,36.05201],[14.29666,36.05254],[14.2971,36.05397],[14.29777,36.05475],[14.29785,36.05545],[14.29725,36.05641],[14.29724,36.05784],[14.2969,36.05807],[14.29668,36.05894],[14.29596,36.05926],[14.29309,36.05971],[14.29198,36.06101],[14.29119,36.06279],[14.29055,36.0635],[14.28997,36.06393],[14.28953,36.06404]]]},"properties":{"cYear":2022,"euGroundWaterBodyCode":"MT015","groundWaterBodyName":"NADUR PERCHED","gwQuantitativeStatusValue":"2","gwChemicalStatusValue":"3"}},{"type":"Feature","geometry":{"type":"Polygon","coordinates":[[[14.2423,36.07645],[14.238,36.07673],[14.23633,36.07614],[14.23538,36.07535],[14.23517,36.07474],[14.23556,36.07354],[14.23524,36.07238],[14.23495,36.06945],[14.23471,36.06849],[14.23416,36.06796],[14.23204,36.0676],[14.23155,36.0673],[14.23137,36.06685],[14.23142,36.0665],[14.23177,36.06638],[14.23173,36.0658],[14.23226,36.0639],[14.23296,36.06223],[14.23373,36.06195],[14.23436,36.06216],[14.23523,36.06578],[14.23498,36.0666],[14.23493,36.06746],[14.23519,36.06816],[14.2356,36.06856],[14.23708,36.07082],[14.23703,36.07159],[14.23724,36.07201],[14.23869,36.07378],[14.23898,36.07453],[14.23953,36.07518],[14.24212,36.0762],[14.2423,36.07645]]]},"properties":{"cYear":2022,"euGroundWaterBodyCode":"MT017","groundWaterBodyName":"ZEBBUG PERCHED","gwQuantitativeStatusValue":"2","gwChemicalStatusValue":"3"}},{"type":"Feature","geometry":{"type":"Polygon","coordinates":[[[14.27002,36.0633],[14.26946,36.06394],[14.26951,36.06455],[14.26979,36.06524],[14.27093,36.0658],[14.27099,36.06656],[14.27084,36.06697],[14.27003,36.06749],[14.26898,36.06931],[14.26852,36.06976],[14.2676,36.07028],[14.26741,36.07066],[14.26675,36.07073],[14.26628,36.07058],[14.26559,36.07103],[14.26516,36.07104],[14.26482,36.07145],[14.26466,36.07136],[14.26433,36.07038],[14.26389,36.06975],[14.26385,36.06934],[14.26446,36.06689],[14.26441,36.06428],[14.26562,36.06237],[14.26556,36.06164],[14.26578,36.0609],[14.2665,36.05985],[14.26703,36.05934],[14.26758,36.0592],[14.26807,36.0585],[14.268,36.05779],[14.26755,36.05687],[14.26741,36.05549],[14.26749,36.05566],[14.26765,36.05382],[14.26807,36.0528],[14.26803,36.05247],[14.26777,36.0523],[14.26657,36.05231],[14.26568,36.05262],[14.26496,36.0538],[14.26344,36.0546],[14.26171,36.05636],[14.26126,36.05634],[14.26057,36.05598],[14.26016,36.05555],[14.25911,36.05382],[14.25916,36.05315],[14.25963,36.05256],[14.25972,36.05191],[14.25943,36.05112],[14.25907,36.05084],[14.2589,36.05001],[14.25861,36.04976],[14.25765,36.05031],[14.25719,36.05165],[14.25641,36.0525],[14.25607,36.05338],[14.2559,36.05468],[14.25532,36.05581],[14.25473,36.05636],[14.25444,36.05639],[14.25404,36.05584],[14.25404,36.05468],[14.25464,36.05379],[14.25548,36.05197],[14.25526,36.05061],[14.25437,36.04897],[14.25378,36.04726],[14.2537,36.04637],[14.25393,36.04611],[14.25537,36.04534],[14.25611,36.04523],[14.25776,36.04428],[14.26173,36.04457],[14.2647,36.04511],[14.26767,36.04605],[14.2693,36.04617],[14.27127,36.04728],[14.27362,36.04809],[14.27457,36.04818],[14.2763,36.04797],[14.27744,36.0488],[14.27751,36.04935],[14.27727,36.05],[14.27655,36.05109],[14.27594,36.05173],[14.27393,36.05307],[14.27384,36.05356],[14.27558,36.05589],[14.27533,36.05707],[14.27538,36.05844],[14.27571,36.05942],[14.27636,36.0599],[14.27736,36.06027],[14.27862,36.0603],[14.27943,36.06009],[14.27967,36.06015],[14.27979,36.06039],[14.27887,36.06132],[14.27776,36.06198],[14.27734,36.06256],[14.27751,36.06322],[14.27661,36.06307],[14.27598,36.06333],[14.2739,36.06339],[14.27299,36.06389],[14.27232,36.06399],[14.27169,36.06387],[14.27133,36.06341],[14.2716,36.06222],[14.27132,36.06062],[14.27109,36.06096],[14.27106,36.06153],[14.27071,36.06242],[14.27002,36.0633]]]},"properties":{"cYear":2022,"euGroundWaterBodyCode":"MT016","groundWaterBodyName":"XAGHRA PERCHED","gwQuantitativeStatusValue":"2","gwChemicalStatusValue":"3"}},{"type":"Feature","geometry":{"type":"Polygon","coordinates":[[[14.38866,35.95756],[14.38729,35.9564],[14.38583,35.95395],[14.38218,35.95322],[14.37874,35.95208],[14.37858,35.95236],[14.37967,35.95276],[14.3804,35.95349],[14.37956,35.95344],[14.38055,35.95385],[14.38059,35.95437],[14.38158,35.95481],[14.38237,35.95486],[14.38306,35.95422],[14.38478,35.95495],[14.38537,35.95547],[14.38473,35.95611],[14.38403,35.95602],[14.38305,35.95554],[14.38015,35.95465],[14.37817,35.95436],[14.37714,35.95451],[14.37596,35.95371],[14.37557,35.95319],[14.37503,35.95298],[14.37246,35.95301],[14.37148,35.95189],[14.36458,35.9507],[14.36409,35.9507],[14.3641,35.95085],[14.36482,35.95176],[14.36245,35.95117],[14.36088,35.95103],[14.35624,35.95014],[14.35141,35.94988],[14.35336,35.94927],[14.35279,35.94908],[14.34665,35.9485],[14.34349,35.94919],[14.3408,35.94859],[14.34046,35.94827],[14.33884,35.94779],[14.33825,35.94694],[14.33748,35.94465],[14.33695,35.94381],[14.33488,35.9432],[14.33404,35.94332],[14.33212,35.94255],[14.33143,35.94222],[14.33104,35.94178],[14.33099,35.94126],[14.33204,35.94015],[14.33303,35.93963],[14.33654,35.93929],[14.33758,35.93889],[14.33922,35.93734],[14.33952,35.93727],[14.34342,35.93744],[14.35185,35.93844],[14.35219,35.9388],[14.35283,35.939],[14.35406,35.93869],[14.35653,35.93918],[14.3585,35.93915],[14.35969,35.93931],[14.36216,35.93896],[14.36555,35.94038],[14.36752,35.94075],[14.3687,35.94115],[14.37166,35.94137],[14.37024,35.94028],[14.37103,35.94052],[14.37274,35.94181],[14.37475,35.94414],[14.37583,35.94491],[14.37725,35.94579],[14.37844,35.946],[14.37844,35.9462],[14.37878,35.94656],[14.38227,35.94821],[14.38413,35.95034],[14.38904,35.95344],[14.39026,35.95481],[14.39124,35.95633],[14.39124,35.95698],[14.39084,35.95741],[14.39034,35.95757],[14.38866,35.95756]]]},"properties":{"cYear":2022,"euGroundWaterBodyCode":"MT006","groundWaterBodyName":"MIZIEB MEAN SEA LEVEL","gwQuantitativeStatusValue":"2","gwChemicalStatusValue":"3"}},{"type":"Feature","geometry":{"type":"Polygon","coordinates":[[[14.36344,35.91759],[14.35937,35.91777],[14.35959,35.91717],[14.35723,35.91621],[14.35573,35.91652],[14.34866,35.91684],[14.348,35.91612],[14.3491,35.91519],[14.34938,35.91448],[14.35062,35.91366],[14.353,35.9128],[14.35342,35.91225],[14.35107,35.91074],[14.35052,35.9114],[14.34949,35.9121],[14.34812,35.91242],[14.34568,35.91218],[14.34541,35.9124],[14.34519,35.91322],[14.3441,35.91371],[14.34262,35.91259],[14.34154,35.91225],[14.3412,35.91274],[14.33997,35.91278],[14.33996,35.91339],[14.34111,35.91401],[14.34225,35.91496],[14.34264,35.91596],[14.34262,35.91689],[14.34202,35.91645],[14.33846,35.91807],[14.33812,35.91856],[14.33724,35.9185],[14.33567,35.91898],[14.33459,35.91825],[14.33487,35.9177],[14.33632,35.91622],[14.33614,35.91495],[14.33696,35.91463],[14.33738,35.91397],[14.33732,35.91336],[14.33995,35.91041],[14.34002,35.90986],[14.33881,35.90952],[14.33909,35.90858],[14.34045,35.90854],[14.34166,35.90949],[14.34214,35.90867],[14.34209,35.90795],[14.34286,35.90663],[14.34604,35.90694],[14.34793,35.9074],[14.34861,35.9074],[14.3476,35.90728],[14.35108,35.90572],[14.35582,35.90637],[14.35805,35.90722],[14.35933,35.90734],[14.36117,35.90742],[14.36463,35.90701],[14.36856,35.90732],[14.3727,35.90742],[14.37527,35.90777],[14.37676,35.90823],[14.37825,35.90846],[14.38183,35.9096],[14.38358,35.91033],[14.38547,35.91085],[14.38676,35.91097],[14.38725,35.91026],[14.38875,35.90956],[14.3899,35.90968],[14.393,35.91114],[14.39475,35.91226],[14.40314,35.91388],[14.40774,35.91509],[14.40942,35.9156],[14.41057,35.91638],[14.41219,35.91695],[14.41408,35.91708],[14.4159,35.91803],[14.41406,35.91868],[14.41372,35.91845],[14.41351,35.91895],[14.41161,35.91893],[14.40845,35.91747],[14.40852,35.91691],[14.40791,35.91696],[14.40791,35.91724],[14.40683,35.91651],[14.40474,35.91555],[14.40095,35.91519],[14.39708,35.91521],[14.40005,35.91639],[14.40078,35.91712],[14.40057,35.91761],[14.39913,35.9187],[14.3981,35.91919],[14.39634,35.91939],[14.39566,35.91911],[14.39486,35.9185],[14.39242,35.91776],[14.38985,35.91751],[14.3889,35.91756],[14.38855,35.91789],[14.39023,35.9189],[14.38861,35.91838],[14.38645,35.91798],[14.37981,35.91687],[14.37915,35.91697],[14.38249,35.91732],[14.38928,35.91863],[14.39017,35.91932],[14.39201,35.92024],[14.39253,35.92033],[14.39326,35.92081],[14.39356,35.92193],[14.39393,35.92232],[14.39402,35.92314],[14.39454,35.9234],[14.39539,35.92328],[14.39635,35.92269],[14.39631,35.92213],[14.39647,35.9217],[14.39906,35.92164],[14.40112,35.92179],[14.40165,35.92154],[14.4006,35.92135],[14.40087,35.9211],[14.40045,35.92067],[14.40126,35.91947],[14.40343,35.91953],[14.40564,35.92007],[14.4059,35.92059],[14.40599,35.92145],[14.40836,35.92177],[14.40809,35.92237],[14.40681,35.92313],[14.40251,35.92434],[14.40219,35.92472],[14.40227,35.92588],[14.40128,35.92557],[14.4009,35.92621],[14.40125,35.9269],[14.40194,35.92725],[14.40219,35.92769],[14.40314,35.92799],[14.4043,35.92805],[14.40542,35.9275],[14.40653,35.9276],[14.40669,35.92747],[14.40747,35.92821],[14.40782,35.92937],[14.40745,35.92954],[14.40744,35.92988],[14.40749,35.93023],[14.40775,35.93053],[14.40707,35.93035],[14.40697,35.92983],[14.40622,35.93056],[14.40657,35.93164],[14.4064,35.93236],[14.40587,35.93257],[14.40328,35.93238],[14.4033,35.93165],[14.40305,35.93053],[14.40242,35.93031],[14.40127,35.92952],[14.39932,35.92886],[14.39679,35.92836],[14.39664,35.92811],[14.39611,35.9284],[14.39503,35.92942],[14.39576,35.93029],[14.39738,35.93121],[14.3978,35.93164],[14.39827,35.93177],[14.39742,35.93228],[14.39689,35.93206],[14.3968,35.93172],[14.39533,35.93089],[14.39375,35.9304],[14.39312,35.93001],[14.3927,35.9297],[14.39282,35.92932],[14.39208,35.92914],[14.39128,35.92935],[14.38955,35.92886],[14.38844,35.92872],[14.38776,35.92819],[14.38755,35.92836],[14.38601,35.92852],[14.38752,35.9297],[14.38778,35.93017],[14.38851,35.93091],[14.38904,35.931],[14.38893,35.93121],[14.38946,35.93122],[14.38956,35.93156],[14.38944,35.93246],[14.38922,35.93289],[14.38847,35.93361],[14.38921,35.93379],[14.39048,35.93368],[14.39258,35.93421],[14.39341,35.93504],[14.39362,35.93547],[14.39461,35.93625],[14.39524,35.93647],[14.39581,35.93699],[14.39756,35.93705],[14.40009,35.93755],[14.40066,35.93815],[14.40124,35.93842],[14.40259,35.93976],[14.40259,35.93993],[14.401,35.94031],[14.39972,35.94107],[14.39934,35.94154],[14.39912,35.94209],[14.39964,35.9424],[14.40058,35.94348],[14.40046,35.94391],[14.3994,35.9442],[14.39867,35.94385],[14.39803,35.94384],[14.39543,35.94468],[14.39443,35.94463],[14.39396,35.94411],[14.39434,35.94355],[14.39489,35.94188],[14.39548,35.94133],[14.39582,35.93996],[14.39609,35.93949],[14.39558,35.93849],[14.39511,35.93806],[14.39517,35.93789],[14.39395,35.93779],[14.39336,35.93822],[14.3933,35.93886],[14.39382,35.93977],[14.39344,35.94002],[14.39296,35.94023],[14.39249,35.94023],[14.39159,35.94],[14.39111,35.94034],[14.39105,35.94094],[14.39067,35.9415],[14.38892,35.94225],[14.38828,35.94216],[14.38776,35.94151],[14.38767,35.9407],[14.3872,35.94022],[14.38722,35.93906],[14.38617,35.93853],[14.38533,35.93831],[14.3848,35.93835],[14.38378,35.93911],[14.38342,35.93877],[14.38281,35.93734],[14.38177,35.93617],[14.38173,35.93548],[14.38142,35.93509],[14.38032,35.9344],[14.37678,35.93428],[14.37751,35.93493],[14.37929,35.93576],[14.37923,35.93623],[14.37965,35.93654],[14.37975,35.93714],[14.379,35.93739],[14.37811,35.93725],[14.37695,35.93673],[14.37663,35.93715],[14.37541,35.93701],[14.37321,35.93583],[14.37122,35.935],[14.37017,35.93473],[14.3698,35.93443],[14.36934,35.93352],[14.36951,35.933],[14.36887,35.93283],[14.36837,35.93166],[14.3678,35.93088],[14.36721,35.93135],[14.36709,35.93174],[14.36652,35.93139],[14.3662,35.93177],[14.36619,35.9322],[14.36592,35.93267],[14.36639,35.93285],[14.36479,35.93373],[14.36378,35.9339],[14.36067,35.93378],[14.35477,35.93239],[14.35313,35.93217],[14.35256,35.93185],[14.35168,35.93094],[14.35163,35.93073],[14.35189,35.93069],[14.3519,35.92996],[14.35292,35.92932],[14.35341,35.92855],[14.35495,35.92758],[14.35596,35.92746],[14.35707,35.9276],[14.3576,35.92752],[14.35776,35.92718],[14.35729,35.92692],[14.3536,35.92619],[14.35287,35.92584],[14.35235,35.92506],[14.35209,35.9251],[14.35183,35.92489],[14.35141,35.92475],[14.3514,35.92531],[14.35124,35.9254],[14.35024,35.92526],[14.34986,35.92543],[14.35074,35.92651],[14.35074,35.92694],[14.34988,35.9274],[14.34904,35.92735],[14.34787,35.9276],[14.34534,35.92744],[14.34456,35.92671],[14.34499,35.92637],[14.34537,35.92568],[14.34523,35.92456],[14.34492,35.924],[14.34509,35.92345],[14.34542,35.92255],[14.34627,35.92204],[14.34754,35.92184],[14.34765,35.92171],[14.3485,35.92172],[14.34908,35.92177],[14.35028,35.92238],[14.35118,35.9223],[14.35204,35.92162],[14.35267,35.92141],[14.3532,35.92146],[14.35363,35.92117],[14.35369,35.92087],[14.35332,35.92069],[14.35549,35.92024],[14.35545,35.91989],[14.35588,35.91917],[14.35795,35.91846],[14.35849,35.91786],[14.36344,35.91759]],[[14.37176,35.91722],[14.36684,35.9179],[14.36582,35.91751],[14.36543,35.91753],[14.36705,35.91799],[14.36968,35.9184],[14.37027,35.91832],[14.37075,35.91776],[14.37176,35.91722]],[[14.37576,35.9169],[14.37439,35.91687],[14.37353,35.91702],[14.37576,35.9169]]]},"properties":{"cYear":2022,"euGroundWaterBodyCode":"MT003","groundWaterBodyName":"MGARR-WARDIJA PERCHED","gwQuantitativeStatusValue":"2","gwChemicalStatusValue":"3"}},{"type":"Feature","geometry":{"type":"Polygon","coordinates":[[[14.33388,36.01889],[14.33343,36.01888],[14.3312,36.01966],[14.3311,36.01959],[14.33135,36.01918],[14.33136,36.01865],[14.33054,36.01796],[14.33057,36.01769],[14.33016,36.01739],[14.33055,36.01733],[14.3297,36.0168],[14.32951,36.01642],[14.32912,36.01653],[14.32912,36.01677],[14.32896,36.01683],[14.32879,36.01662],[14.32864,36.01683],[14.32879,36.01713],[14.32875,36.01786],[14.32848,36.01805],[14.32871,36.01818],[14.32856,36.01821],[14.32885,36.01886],[14.32872,36.01946],[14.32852,36.01949],[14.32869,36.01956],[14.3285,36.01972],[14.32754,36.01886],[14.32799,36.01945],[14.32764,36.01959],[14.3274,36.0192],[14.32754,36.01908],[14.32734,36.01911],[14.32711,36.01873],[14.32674,36.01869],[14.32654,36.01827],[14.32582,36.01798],[14.32556,36.01766],[14.32515,36.01783],[14.32477,36.01844],[14.32441,36.01799],[14.32435,36.01849],[14.32369,36.0189],[14.32323,36.01871],[14.32343,36.0185],[14.32341,36.01826],[14.32324,36.0184],[14.32285,36.01839],[14.32259,36.01775],[14.32229,36.01751],[14.32268,36.01716],[14.32289,36.01723],[14.32288,36.01696],[14.32305,36.01708],[14.32334,36.01638],[14.32383,36.01654],[14.32411,36.01636],[14.32418,36.01618],[14.324,36.01581],[14.3241,36.01571],[14.3242,36.01583],[14.32436,36.0156],[14.32354,36.01502],[14.32358,36.0149],[14.32384,36.01512],[14.32359,36.01479],[14.32413,36.01423],[14.32374,36.01359],[14.32394,36.01314],[14.32429,36.01297],[14.32415,36.0128],[14.32436,36.01259],[14.32431,36.01241],[14.32521,36.01186],[14.32634,36.01088],[14.327,36.01057],[14.32632,36.01048],[14.32695,36.0098],[14.32751,36.00998],[14.32756,36.01052],[14.3281,36.01093],[14.32855,36.01018],[14.32883,36.01028],[14.32887,36.01017],[14.32873,36.00993],[14.3283,36.00982],[14.32943,36.00962],[14.32967,36.00934],[14.32955,36.00868],[14.32874,36.00822],[14.32881,36.00758],[14.32834,36.00682],[14.32709,36.00647],[14.32694,36.00628],[14.32682,36.00537],[14.32657,36.0051],[14.32626,36.00481],[14.32529,36.00459],[14.32526,36.00446],[14.32545,36.00445],[14.32486,36.00434],[14.32476,36.0042],[14.325,36.00423],[14.32433,36.00395],[14.32602,36.00434],[14.32951,36.00452],[14.33076,36.00472],[14.33152,36.00462],[14.33216,36.00422],[14.33256,36.00418],[14.33395,36.00479],[14.33505,36.00494],[14.33495,36.00555],[14.33587,36.00548],[14.33684,36.00501],[14.33769,36.0049],[14.33883,36.00514],[14.33891,36.00536],[14.33929,36.00544],[14.33974,36.00527],[14.34108,36.00538],[14.34261,36.00583],[14.34366,36.00594],[14.34478,36.00631],[14.34523,36.00675],[14.34687,36.00655],[14.34709,36.00646],[14.34672,36.00636],[14.34705,36.00628],[14.34734,36.00654],[14.34844,36.00665],[14.34861,36.00719],[14.34888,36.00722],[14.34881,36.00744],[14.34949,36.00818],[14.34962,36.00848],[14.34938,36.00863],[14.35021,36.00958],[14.35008,36.00973],[14.35033,36.01022],[14.34847,36.01207],[14.34854,36.01223],[14.34816,36.01253],[14.34825,36.01277],[14.34734,36.01342],[14.34686,36.01432],[14.34676,36.01418],[14.34534,36.01476],[14.34595,36.01476],[14.34541,36.01515],[14.34503,36.01502],[14.34423,36.01585],[14.34377,36.01554],[14.34226,36.01563],[14.3413,36.01654],[14.34005,36.01703],[14.34058,36.01731],[14.34029,36.01749],[14.3399,36.01818],[14.3406,36.01842],[14.34028,36.0187],[14.33987,36.01866],[14.34011,36.01882],[14.3398,36.01916],[14.33954,36.01913],[14.3395,36.01948],[14.33836,36.01932],[14.33872,36.01964],[14.33836,36.01978],[14.33896,36.01994],[14.33873,36.02014],[14.33807,36.0199],[14.33786,36.02006],[14.33797,36.02021],[14.33714,36.01985],[14.33813,36.01924],[14.33841,36.01888],[14.33818,36.01849],[14.33833,36.01832],[14.33805,36.01831],[14.33783,36.01787],[14.33766,36.01702],[14.33781,36.01675],[14.33731,36.01646],[14.33621,36.01658],[14.33613,36.0179],[14.33595,36.01824],[14.33548,36.01846],[14.33513,36.01836],[14.33513,36.01849],[14.33388,36.01889]]]},"properties":{"cYear":2022,"euGroundWaterBodyCode":"MT012","groundWaterBodyName":"COMINO MEAN SEA LEVEL","gwQuantitativeStatusValue":"2","gwChemicalStatusValue":"3"}},{"type":"Feature","geometry":{"type":"Polygon","coordinates":[[[14.23895,36.04519],[14.23497,36.04283],[14.23324,36.04141],[14.23264,36.0412],[14.23295,36.0409],[14.22732,36.04085],[14.22647,36.04027],[14.22506,36.03887],[14.22521,36.03728],[14.22617,36.03682],[14.22737,36.03594],[14.22828,36.03568],[14.2297,36.03588],[14.23136,36.0369],[14.23454,36.03738],[14.23521,36.03766],[14.23552,36.03761],[14.2346,36.03668],[14.23395,36.03556],[14.23506,36.03471],[14.23525,36.03382],[14.23628,36.03325],[14.23722,36.03299],[14.23757,36.03311],[14.23796,36.03275],[14.23834,36.03266],[14.23891,36.03263],[14.24008,36.0329],[14.24035,36.0341],[14.24079,36.03508],[14.24305,36.0346],[14.24421,36.03559],[14.24521,36.03608],[14.24525,36.03629],[14.24491,36.03688],[14.24512,36.0377],[14.2463,36.039],[14.24749,36.03981],[14.24804,36.04042],[14.24799,36.04102],[14.24558,36.04146],[14.2445,36.04191],[14.2425,36.04218],[14.24084,36.04268],[14.23988,36.04376],[14.23985,36.04399],[14.23895,36.04519]]]},"properties":{"cYear":2022,"euGroundWaterBodyCode":"MT018","groundWaterBodyName":"VICTORIA-KERCEM PERCHED","gwQuantitativeStatusValue":"2","gwChemicalStatusValue":"3"}}],"metadata":{"source":"EEA WISE WFD, WFD2022_GroundWaterBody_WM layer 0 (Malta's 3rd RBMP reporting)","query_url":"https://water.discomap.eea.europa.eu/arcgis/rest/services/WISE_WFD/WFD2022_GroundWaterBody_WM/MapServer/0/query?where=countryCode%3D%27MT%27&outFields=cYear%2CeuGroundWaterBodyCode%2CgroundWaterBodyName%2CgwQuantitativeStatusValue%2CgwChemicalStatusValue&returnGeometry=true&outSR=4326&maxAllowableOffset=0.0001&geometryPrecision=5&f=geojson","retrieved":"2026-10-05","status_codes":"2 = good, 3 = poor (layer legend)"}}