{"type": "FeatureCollection", "features": [{"type": "Feature", "properties": {"threshold_brightness_change": 375}, "geometry": {"type": "Polygon", "coordinates": [[[14.41802076058024, 35.89517052378248], [14.418022080346011, 35.894990211068524], [14.418354484345928, 35.89499182139359], [14.418353824841358, 35.895081977756554], [14.418243023379503, 35.895081441081985], [14.418242363746387, 35.8951715974418], [14.41802076058024, 35.89517052378248]]]}}, {"type": "Feature", "properties": {"threshold_brightness_change": 375}, "geometry": {"type": "Polygon", "coordinates": [[[14.417687695588873, 35.89525906887652], [14.417690336627809, 35.8948984434698], [14.417801137823774, 35.89489898065191], [14.417800477694053, 35.894989137007414], [14.417911279018568, 35.894989674089075], [14.417909298988661, 35.895260143152676], [14.417687695588873, 35.89525906887652]]]}}, {"type": "Feature", "properties": {"threshold_brightness_change": 375}, "geometry": {"type": "Polygon", "coordinates": [[[14.418341953258107, 35.89670479205632], [14.418343272369784, 35.896524479378215], [14.418232468898001, 35.89652394267537], [14.418233128575071, 35.89643378633603], [14.418122325231844, 35.89643324953274], [14.418122985031605, 35.896343093193806], [14.418012181816936, 35.89634255629005], [14.418014161575512, 35.89607208727035], [14.418235767254046, 35.896073160965024], [14.418236426916465, 35.895983004618856], [14.41834722963451, 35.895983541311104], [14.418348548699313, 35.89580322861112], [14.418570153641701, 35.89580430168189], [14.418570812918468, 35.895714145326316], [14.418681615268431, 35.895714681706615], [14.41868227441665, 35.895624525347905], [14.418793076643924, 35.89562506162422], [14.418793735663597, 35.895534905262394], [14.418682933561943, 35.89553436898785], [14.418685570113832, 35.89517374353389], [14.418574768517578, 35.895173207164184], [14.418576087027189, 35.894992894432555], [14.418465285685093, 35.89499235796418], [14.41846594506112, 35.89490220159807], [14.418576746277598, 35.89490273806468], [14.418577405525085, 35.89481258169544], [14.41846660443422, 35.894812045230594], [14.418467263804391, 35.89472188886176], [14.41857806476964, 35.89472242532484], [14.418578724011269, 35.89463226895286], [14.419243529110556, 35.89463548557426], [14.419244187595575, 35.89454532919032], [14.419576589807873, 35.894546936115866], [14.419577906015466, 35.89436662333332], [14.419910307500395, 35.89436822932837], [14.419909649774898, 35.894458385725606], [14.420020450401328, 35.89445892085463], [14.420019135192796, 35.89463923364855], [14.420129936073375, 35.894639768678886], [14.42012927859034, 35.89472992507554], [14.42046168162644, 35.89473152955854], [14.420462995835909, 35.89455121675327], [14.420573796602554, 35.894551751373], [14.420572482644314, 35.89473206418179], [14.420683283665104, 35.89473259870282], [14.420682626807222, 35.894822755106915], [14.420793427956541, 35.89482328952749], [14.420794084688811, 35.894733133121626], [14.420904885715435, 35.89473366743823], [14.420905542319172, 35.894643511029244], [14.421127144129944, 35.89464457935228], [14.421127800479534, 35.894554422938405], [14.42123860126368, 35.89455495694485], [14.421237288812804, 35.894735269774756], [14.421126487777432, 35.89473473576479], [14.421125831422007, 35.894824892175926], [14.420904229108782, 35.894823823845854], [14.420903572499212, 35.89491398025212], [14.420460367405298, 35.894911842358354], [14.420461024517328, 35.89482168595913], [14.420350223376762, 35.894821151231916], [14.420349566139118, 35.894911307629364], [14.420238764875855, 35.894910772798184], [14.420237450140572, 35.89509108558547], [14.420569854692815, 35.89509268978297], [14.420569197697647, 35.89518284617984], [14.420458396051696, 35.8951823115478], [14.42045773892799, 35.89527246794157], [14.420346937159342, 35.89527193320554], [14.4203462799071, 35.895362089596155], [14.42001387424182, 35.895360484769526], [14.420014531870917, 35.8952703283842], [14.4197929283599, 35.89526925799222], [14.419792270479572, 35.89535941437403], [14.41968146860283, 35.89535887902295], [14.419680152582162, 35.895539191778965], [14.419790954710143, 35.89553972713357], [14.419789638929025, 35.89572003988763], [14.41956803417351, 35.89571896906915], [14.419567376027326, 35.89580912544062], [14.419456573528334, 35.89580858987629], [14.419455915253607, 35.89589874624461], [14.419345112631916, 35.89589821057632], [14.419343795822446, 35.896078523305334], [14.419232992952436, 35.896077987531285], [14.419232334417693, 35.896168143891984], [14.419010728435204, 35.896167072033705], [14.419010069646285, 35.896257228389494], [14.41889926653381, 35.89625669230526], [14.418897948695948, 35.89643700500923], [14.41878714533515, 35.89643646881925], [14.418786486286203, 35.89652662516742], [14.418675682802705, 35.89652608887346], [14.418674364444783, 35.896706401562156], [14.418341953258107, 35.89670479205632]]]}}], "properties": {"pixels": 276, "area_m2": 27600, "control_pixels": 140}}