{
 "type": "FeatureCollection",
 "features": [
  {
   "type": "Feature",
   "properties": {
    "source": "OpenStreetMap way 486630513 (leisure=park, surface=gravel), retrieved 3 Oct 2026, (c) OpenStreetMap contributors, ODbL"
   },
   "geometry": {
    "type": "Polygon",
    "coordinates": [
     [
      [
       14.4181486,
       35.8971735
      ],
      [
       14.4196632,
       35.895934
      ],
      [
       14.421277,
       35.8946871
      ],
      [
       14.4212383,
       35.8945505
      ],
      [
       14.4212186,
       35.8945216
      ],
      [
       14.4211187,
       35.8944652
      ],
      [
       14.4204085,
       35.8943611
      ],
      [
       14.4190387,
       35.8942228
      ],
      [
       14.4188322,
       35.8942174
      ],
      [
       14.4185607,
       35.8942426
      ],
      [
       14.4173529,
       35.8944482
      ],
      [
       14.4179668,
       35.8964725
      ],
      [
       14.4177425,
       35.8965492
      ],
      [
       14.4181486,
       35.8971735
      ]
     ]
    ]
   }
  }
 ]
}