{"type":"FeatureCollection","features":[{"type":"Feature","properties":{"sitecode":"MT0000023","sitename":"Il-Magħluq tal-Baħar ta’ Marsaskala","type":"SAC"},"geometry":{"type":"Polygon","coordinates":[[[14.562563,35.861662],[14.56262,35.861171],[14.562669,35.860709],[14.562704,35.86054],[14.562698,35.860523],[14.562801,35.860258],[14.56297,35.85984],[14.562998,35.859687],[14.562956,35.85945],[14.562888,35.859325],[14.562827,35.859218],[14.562797,35.859175],[14.562737,35.859187],[14.562356,35.859272],[14.562049,35.85934],[14.561993,35.85935],[14.561322,35.859506],[14.561287,35.859505],[14.561255,35.859512],[14.56134,35.859646],[14.561457,35.859854],[14.561394,35.860077],[14.561377,35.86016],[14.561327,35.860349],[14.561359,35.86063],[14.561288,35.860893],[14.561232,35.861127],[14.561131,35.861428],[14.561101,35.861556],[14.561028,35.861764],[14.560993,35.861851],[14.56094,35.86194],[14.560925,35.861963],[14.560916,35.861993],[14.560948,35.862],[14.562523,35.862],[14.562563,35.861662]]]}},{"type":"Feature","properties":{"sitecode":"MT0000035","sitename":"L-Inħawi ta’ Ħas-Saptan","type":"SAC"},"geometry":{"type":"Polygon","coordinates":[[[14.516595,35.835389],[14.516528,35.835434],[14.516491,35.835457],[14.516429,35.835475],[14.516235,35.835543],[14.516137,35.835554],[14.516032,35.835566],[14.515956,35.835572],[14.515833,35.835568],[14.515738,35.835539],[14.515617,35.835494],[14.515496,35.835461],[14.515411,35.835435],[14.515267,35.835419],[14.515142,35.835395],[14.515037,35.8354],[14.514931,35.835429],[14.514869,35.83546],[14.514776,35.835524],[14.514743,35.835554],[14.514708,35.835587],[14.514661,35.835668],[14.514646,35.835758],[14.514636,35.83589],[14.514612,35.836027],[14.514549,35.836204],[14.514484,35.836378],[14.514457,35.836483],[14.514466,35.836533],[14.514451,35.836618],[14.51444,35.836694],[14.514358,35.836754],[14.514292,35.836857],[14.514201,35.836948],[14.514096,35.837033],[14.514052,35.837067],[14.51408,35.837087],[14.514127,35.837123],[14.514146,35.837137],[14.514224,35.837078],[14.514404,35.836937],[14.514486,35.836875],[14.514537,35.836859],[14.51461,35.836849],[14.514675,35.836839],[14.514687,35.83684],[14.514689,35.83684],[14.51477,35.836819],[14.514879,35.836799],[14.514915,35.836788],[14.514965,35.836807],[14.515031,35.836848],[14.515149,35.836912],[14.515222,35.836896],[14.515227,35.836836],[14.515236,35.836766],[14.515271,35.836734],[14.515278,35.836746],[14.515307,35.836747],[14.515333,35.836722],[14.515397,35.836656],[14.515397,35.836656],[14.515414,35.83664],[14.515454,35.836602],[14.515515,35.836561],[14.515556,35.83654],[14.515583,35.836528],[14.515608,35.83651],[14.51563,35.836506],[14.515657,35.836494],[14.515731,35.836478],[14.515792,35.836466],[14.515882,35.83646],[14.515922,35.836458],[14.515922,35.836458],[14.516001,35.83646],[14.516005,35.836461],[14.51606,35.836474],[14.516066,35.836462],[14.516062,35.836415],[14.516018,35.836391],[14.515998,35.836351],[14.516033,35.836332],[14.516054,35.83631],[14.516092,35.83626],[14.516122,35.836256],[14.516202,35.836247],[14.516254,35.83623],[14.516386,35.836181],[14.516473,35.836161],[14.516488,35.836155],[14.516488,35.836138],[14.516507,35.836123],[14.51661,35.836091],[14.516706,35.836077],[14.516823,35.836072],[14.51692,35.836083],[14.517034,35.836116],[14.517093,35.836156],[14.517178,35.836],[14.517192,35.835931],[14.517193,35.835924],[14.517197,35.835892],[14.5172,35.835866],[14.517216,35.835799],[14.517168,35.835637],[14.517166,35.835633],[14.517136,35.835589],[14.517139,35.835588],[14.517111,35.835543],[14.517091,35.835507],[14.51706,35.835468],[14.517023,35.835408],[14.517003,35.835381],[14.516997,35.835378],[14.51698,35.835369],[14.516933,35.835344],[14.516933,35.835344],[14.516891,35.835307],[14.516833,35.835244],[14.516827,35.835231],[14.516826,35.835232],[14.516789,35.83526],[14.516719,35.835296],[14.516658,35.835342],[14.516649,35.835349],[14.516595,35.835389]]]}},{"type":"Feature","properties":{"sitecode":"MT0000014","sitename":"Il-Ballut ta’ Marsaxlokk","type":"SAC"},"geometry":{"type":"Polygon","coordinates":[[[14.546122,35.839859],[14.546485,35.83972],[14.546697,35.839638],[14.546714,35.839632],[14.547483,35.839169],[14.547649,35.839437],[14.548103,35.839314],[14.548224,35.839556],[14.547825,35.839743],[14.548008,35.840077],[14.548149,35.840302],[14.548259,35.840443],[14.548383,35.840661],[14.54832,35.840725],[14.548319,35.840752],[14.548345,35.840811],[14.548356,35.840842],[14.54839,35.840908],[14.548401,35.840946],[14.548424,35.840974],[14.548456,35.840995],[14.548501,35.841014],[14.548637,35.840985],[14.548765,35.840941],[14.548853,35.841009],[14.548947,35.841099],[14.549018,35.841366],[14.54918,35.841311],[14.549265,35.841293],[14.549418,35.841254],[14.549594,35.841244],[14.549665,35.84124],[14.549665,35.841393],[14.549651,35.841499],[14.549669,35.841499],[14.549719,35.841499],[14.549989,35.841504],[14.550243,35.841523],[14.550518,35.84154],[14.550819,35.84155],[14.551068,35.841555],[14.551087,35.841688],[14.551151,35.841675],[14.551277,35.841665],[14.551369,35.841662],[14.55146,35.841672],[14.551644,35.841685],[14.551781,35.841701],[14.551925,35.841743],[14.552089,35.841803],[14.55223,35.841841],[14.552481,35.841881],[14.552593,35.841792],[14.552593,35.841701],[14.552824,35.841373],[14.552868,35.841327],[14.553096,35.841379],[14.553491,35.841462],[14.553465,35.84143],[14.553444,35.841372],[14.553438,35.841313],[14.553446,35.841242],[14.553473,35.84113],[14.553501,35.840999],[14.553548,35.840891],[14.55359,35.840828],[14.553579,35.840705],[14.553571,35.840541],[14.553588,35.840392],[14.553617,35.840318],[14.55368,35.84031],[14.553735,35.840308],[14.553776,35.840324],[14.553862,35.840344],[14.553933,35.840343],[14.553928,35.840288],[14.553896,35.840181],[14.553873,35.840075],[14.553865,35.839983],[14.553858,35.839884],[14.553868,35.839772],[14.553891,35.839657],[14.553913,35.839555],[14.553953,35.839434],[14.554017,35.839313],[14.554302,35.839415],[14.554364,35.839264],[14.554402,35.839105],[14.554492,35.838901],[14.554561,35.838634],[14.554607,35.838476],[14.554675,35.838308],[14.554731,35.838109],[14.554751,35.838062],[14.554801,35.837978],[14.554865,35.837892],[14.554824,35.837863],[14.554426,35.837566],[14.554168,35.83738],[14.554104,35.837323],[14.554041,35.837253],[14.553967,35.837158],[14.553912,35.837081],[14.553889,35.837047],[14.553865,35.837032],[14.553721,35.837061],[14.553616,35.837074],[14.553539,35.837092],[14.553455,35.837116],[14.553449,35.837133],[14.553235,35.837163],[14.553171,35.837171],[14.55302,35.837193],[14.552927,35.837196],[14.552923,35.837199],[14.552763,35.837221],[14.552704,35.837226],[14.552582,35.837232],[14.552503,35.837239],[14.552352,35.837234],[14.552185,35.837235],[14.55216,35.83722],[14.552044,35.837216],[14.551906,35.837214],[14.551676,35.837196],[14.55156,35.837192],[14.551489,35.837179],[14.551402,35.837173],[14.551293,35.837176],[14.550947,35.837167],[14.550864,35.83733],[14.550772,35.837384],[14.550712,35.837433],[14.550613,35.837505],[14.550575,35.837524],[14.550465,35.837604],[14.550358,35.837678],[14.55022,35.837755],[14.550127,35.837807],[14.550037,35.837869],[14.549952,35.83793],[14.5499,35.837976],[14.549877,35.83799],[14.549829,35.838033],[14.549754,35.838088],[14.549702,35.838131],[14.549654,35.83817],[14.549548,35.838203],[14.549459,35.838224],[14.549364,35.838275],[14.549255,35.83835],[14.549176,35.838415],[14.549097,35.838487],[14.549041,35.838523],[14.548996,35.838576],[14.548919,35.838614],[14.54885,35.838659],[14.548882,35.838681],[14.548906,35.838702],[14.548774,35.838827],[14.5487,35.838882],[14.54861,35.838923],[14.548482,35.838959],[14.548392,35.838994],[14.548282,35.839017],[14.548123,35.839025],[14.547993,35.839024],[14.547888,35.83903],[14.547728,35.839052],[14.547603,35.839054],[14.547512,35.839024],[14.547444,35.83897],[14.547378,35.838961],[14.547278,35.839022],[14.547184,35.83906],[14.547016,35.839074],[14.546904,35.839131],[14.54678,35.839185],[14.546737,35.839282],[14.546646,35.83935],[14.546533,35.839414],[14.546371,35.839484],[14.546304,35.839553],[14.54618,35.839535],[14.546081,35.839582],[14.546037,35.839615],[14.546053,35.839643],[14.546089,35.839668],[14.546071,35.839681],[14.546028,35.8397],[14.546122,35.839859]]]}},{"type":"Feature","properties":{"sitecode":"MT0000024","sitename":"Rdumijiet ta’ Malta: Ir-Ramla taċ-Ċirkewwa sal-Ponta ta’ Bengħisa","type":"SAC"},"geometry":{"type":"Polygon","coordinates":[[[14.505195,35.810736],[14.505308,35.810701],[14.505445,35.810663],[14.50555,35.810631],[14.505634,35.810607],[14.505677,35.810604],[14.505738,35.810605],[14.505849,35.810585],[14.505945,35.81057],[14.506045,35.810561],[14.506071,35.81056],[14.506087,35.81057],[14.506099,35.810572],[14.506186,35.810568],[14.506273,35.810567],[14.506344,35.810562],[14.506422,35.810568],[14.50648,35.810573],[14.506557,35.810536],[14.506621,35.810497],[14.506673,35.810482],[14.506752,35.810459],[14.506845,35.810441],[14.507009,35.810406],[14.507147,35.810365],[14.507267,35.810333],[14.50732,35.810322],[14.5074,35.810297],[14.507482,35.810281],[14.507594,35.810263],[14.507625,35.810256],[14.507713,35.810238],[14.507864,35.810205],[14.508033,35.810175],[14.508127,35.810157],[14.50816,35.810143],[14.508214,35.810135],[14.508323,35.810114],[14.508387,35.810097],[14.508467,35.810069],[14.508583,35.810037],[14.508682,35.81002],[14.508761,35.809992],[14.508836,35.809981],[14.508976,35.809968],[14.509152,35.809955],[14.509314,35.809946],[14.509472,35.809966],[14.509557,35.809978],[14.509736,35.810027],[14.509843,35.810057],[14.509933,35.810085],[14.51006,35.810146],[14.510093,35.810171],[14.510183,35.810086],[14.510272,35.810157],[14.510341,35.810238],[14.510352,35.810259],[14.51044,35.810353],[14.510522,35.810436],[14.510588,35.810517],[14.510685,35.810642],[14.510738,35.810722],[14.510801,35.810856],[14.510861,35.811038],[14.510902,35.811163],[14.510913,35.811285],[14.510888,35.811352],[14.510857,35.811408],[14.510856,35.811449],[14.510898,35.81154],[14.510957,35.811654],[14.510998,35.811788],[14.511033,35.811953],[14.511062,35.812059],[14.511053,35.812159],[14.511051,35.812302],[14.512162,35.812358],[14.512204,35.812361],[14.512416,35.812371],[14.512618,35.812238],[14.512668,35.812188],[14.512662,35.812107],[14.512204,35.811092],[14.512034,35.810713],[14.511925,35.810471],[14.511819,35.810169],[14.511787,35.810084],[14.511774,35.809985],[14.511654,35.809901],[14.511593,35.80984],[14.511565,35.809482],[14.511473,35.80888],[14.511477,35.808763],[14.511632,35.808616],[14.51179,35.808771],[14.511911,35.808686],[14.512351,35.808384],[14.512222,35.808246],[14.512417,35.808116],[14.512458,35.807998],[14.512496,35.807922],[14.512577,35.807807],[14.512805,35.807609],[14.51286,35.807569],[14.513112,35.807407],[14.513221,35.80736],[14.513369,35.807314],[14.513485,35.807308],[14.513503,35.807297],[14.513788,35.807309],[14.513958,35.80731],[14.514177,35.807317],[14.514455,35.807247],[14.514641,35.807205],[14.51487,35.807148],[14.515022,35.807119],[14.515171,35.807092],[14.515293,35.807099],[14.515449,35.807122],[14.515633,35.807201],[14.515801,35.807274],[14.515959,35.807351],[14.515995,35.807332],[14.51612,35.807282],[14.516293,35.807261],[14.516435,35.80728],[14.517081,35.807426],[14.517201,35.807451],[14.51727,35.807458],[14.517316,35.807431],[14.517374,35.807374],[14.517465,35.807268],[14.517534,35.807196],[14.517544,35.807157],[14.517536,35.80714],[14.517504,35.807119],[14.517425,35.807105],[14.517316,35.807107],[14.51732,35.807031],[14.517408,35.807052],[14.517527,35.807046],[14.517903,35.807021],[14.518189,35.807004],[14.518206,35.807076],[14.518165,35.807109],[14.51816,35.807186],[14.518173,35.807276],[14.517686,35.807298],[14.51763,35.807306],[14.517589,35.807331],[14.51753,35.807393],[14.517497,35.807453],[14.517521,35.807504],[14.517582,35.807536],[14.518406,35.807721],[14.519,35.807802],[14.51904,35.807803],[14.519564,35.807708],[14.519917,35.807735],[14.520185,35.807776],[14.520773,35.807885],[14.521381,35.808764],[14.521505,35.808983],[14.521247,35.809135],[14.521247,35.809211],[14.521082,35.809249],[14.520988,35.809344],[14.521386,35.809346],[14.521573,35.809366],[14.521666,35.809442],[14.521807,35.809633],[14.52197,35.80971],[14.522086,35.809883],[14.522271,35.810188],[14.522434,35.810457],[14.522504,35.81059],[14.522714,35.810648],[14.522902,35.81063],[14.523161,35.81046],[14.523561,35.810193],[14.523819,35.810042],[14.52429,35.809662],[14.524479,35.809434],[14.524739,35.809148],[14.525092,35.808787],[14.525281,35.808616],[14.525446,35.808427],[14.525657,35.808255],[14.525893,35.808122],[14.526105,35.807876],[14.526528,35.807686],[14.527138,35.807669],[14.527559,35.807804],[14.527932,35.80794],[14.528284,35.808018],[14.528471,35.808018],[14.528636,35.808038],[14.5288,35.80802],[14.529246,35.807869],[14.529598,35.807755],[14.52995,35.807604],[14.530161,35.807605],[14.53009,35.807757],[14.530112,35.807968],[14.530534,35.807912],[14.530862,35.807913],[14.530864,35.807964],[14.531666,35.808903],[14.531836,35.809061],[14.532616,35.809768],[14.533665,35.809365],[14.533713,35.809004],[14.533749,35.808652],[14.533783,35.808224],[14.533865,35.808254],[14.533935,35.808268],[14.534082,35.808408],[14.534399,35.808031],[14.534996,35.808013],[14.535617,35.808032],[14.535928,35.808373],[14.536254,35.808717],[14.537591,35.809575],[14.53806,35.810153],[14.538228,35.810814],[14.538136,35.810833],[14.538273,35.811519],[14.538408,35.811634],[14.538484,35.811647],[14.538728,35.811654],[14.538775,35.811647],[14.538818,35.811632],[14.538889,35.81159],[14.538998,35.811517],[14.539059,35.811455],[14.539121,35.811372],[14.539204,35.811255],[14.539269,35.811168],[14.539361,35.811043],[14.53937,35.811032],[14.539384,35.811013],[14.539399,35.810994],[14.539415,35.810975],[14.539431,35.810957],[14.539434,35.810953],[14.539449,35.810934],[14.539465,35.810916],[14.539481,35.810897],[14.539497,35.810879],[14.539515,35.810862],[14.539532,35.810844],[14.53955,35.810827],[14.539569,35.810811],[14.539588,35.810795],[14.539608,35.810779],[14.539628,35.810763],[14.539648,35.810748],[14.539669,35.810733],[14.539691,35.810719],[14.539713,35.810705],[14.539735,35.810692],[14.539757,35.810679],[14.53978,35.810666],[14.539803,35.810654],[14.539827,35.810642],[14.539851,35.810631],[14.539875,35.81062],[14.5399,35.81061],[14.539925,35.8106],[14.53995,35.81059],[14.540053,35.810558],[14.540106,35.810544],[14.540159,35.810533],[14.540213,35.810524],[14.540241,35.81052],[14.540268,35.810516],[14.540323,35.810511],[14.540406,35.810508],[14.540489,35.810509],[14.540544,35.810512],[14.540599,35.810517],[14.540654,35.810525],[14.540708,35.810535],[14.540734,35.81054],[14.540787,35.810553],[14.540866,35.810576],[14.540966,35.810613],[14.541039,35.810646],[14.54129,35.810808],[14.541415,35.810896],[14.541496,35.810955],[14.541557,35.811007],[14.54161,35.811054],[14.541645,35.811088],[14.54168,35.811125],[14.541681,35.81113],[14.5417,35.811155],[14.541718,35.811173],[14.541751,35.811202],[14.541778,35.811224],[14.541803,35.81124],[14.541895,35.811276],[14.542279,35.811576],[14.542009,35.811947],[14.542239,35.812133],[14.542488,35.812317],[14.542533,35.812279],[14.542735,35.81222],[14.54273,35.812217],[14.542675,35.812173],[14.542654,35.812117],[14.54258,35.812131],[14.542534,35.812143],[14.542488,35.8121],[14.542414,35.812086],[14.54235,35.812104],[14.542409,35.812029],[14.542535,35.811938],[14.542659,35.811889],[14.542778,35.811816],[14.542856,35.8118],[14.542911,35.811722],[14.542957,35.811635],[14.543043,35.811563],[14.543113,35.811495],[14.543107,35.811418],[14.543089,35.811397],[14.542993,35.811356],[14.542858,35.811324],[14.542792,35.811305],[14.542826,35.811282],[14.542774,35.811245],[14.542676,35.81122],[14.542602,35.811246],[14.542539,35.811191],[14.542516,35.811173],[14.542464,35.811152],[14.542421,35.811166],[14.542373,35.811165],[14.542324,35.811207],[14.542297,35.811168],[14.542337,35.81111],[14.542261,35.811044],[14.542123,35.810962],[14.541978,35.810887],[14.541913,35.810843],[14.541805,35.810817],[14.541743,35.810772],[14.541649,35.81071],[14.541499,35.810646],[14.541339,35.810589],[14.541253,35.810554],[14.541226,35.810523],[14.541132,35.810464],[14.541017,35.81043],[14.540898,35.810387],[14.540849,35.810357],[14.540809,35.810354],[14.540764,35.810295],[14.540723,35.810295],[14.540661,35.810302],[14.540568,35.810305],[14.54047,35.810272],[14.540365,35.810244],[14.54031,35.810246],[14.540251,35.810262],[14.540217,35.810216],[14.540131,35.810196],[14.540072,35.810181],[14.540013,35.810177],[14.539934,35.810163],[14.539821,35.810157],[14.539722,35.810183],[14.539647,35.81025],[14.539574,35.810329],[14.539508,35.810422],[14.539447,35.810515],[14.539403,35.810595],[14.539345,35.810697],[14.53929,35.810798],[14.539233,35.810897],[14.5392,35.810977],[14.539155,35.811058],[14.539083,35.811164],[14.539015,35.811248],[14.538963,35.811301],[14.538958,35.811348],[14.538913,35.811389],[14.538808,35.81142],[14.538745,35.811458],[14.538736,35.811438],[14.538686,35.811387],[14.538698,35.811338],[14.538728,35.811294],[14.538754,35.811249],[14.538799,35.811203],[14.538823,35.811179],[14.538858,35.811151],[14.53889,35.811098],[14.538916,35.811035],[14.538925,35.810941],[14.538965,35.810885],[14.539006,35.81081],[14.539018,35.810748],[14.539058,35.810646],[14.539089,35.810569],[14.539111,35.810468],[14.539083,35.810369],[14.5391,35.810259],[14.539101,35.810101],[14.539105,35.810024],[14.539106,35.809982],[14.53914,35.809919],[14.539149,35.809891],[14.539154,35.809844],[14.539136,35.809802],[14.539115,35.809773],[14.539165,35.809749],[14.539181,35.809703],[14.539212,35.809678],[14.539184,35.809588],[14.539133,35.809554],[14.539018,35.809534],[14.538868,35.809495],[14.538771,35.809473],[14.538654,35.809456],[14.538588,35.809442],[14.538431,35.809405],[14.538378,35.809375],[14.538308,35.809341],[14.538286,35.809298],[14.538313,35.809285],[14.538399,35.809267],[14.538474,35.809222],[14.538406,35.809117],[14.538318,35.809069],[14.538236,35.809028],[14.538149,35.808991],[14.538072,35.808994],[14.538071,35.80895],[14.538075,35.808899],[14.537888,35.808831],[14.537729,35.808866],[14.537615,35.808903],[14.537493,35.808934],[14.537275,35.808951],[14.537193,35.808892],[14.537169,35.808743],[14.537134,35.808701],[14.53711,35.808626],[14.537122,35.80854],[14.536919,35.808499],[14.536792,35.808497],[14.536763,35.808492],[14.53676,35.808433],[14.536696,35.808417],[14.536633,35.808327],[14.536477,35.808273],[14.536381,35.80821],[14.53634,35.808141],[14.536269,35.80808],[14.536173,35.808024],[14.536071,35.807963],[14.536023,35.807957],[14.536072,35.807916],[14.536053,35.807854],[14.535958,35.807814],[14.53581,35.807724],[14.535627,35.807596],[14.535391,35.807472],[14.535273,35.807457],[14.535159,35.807448],[14.53511,35.807496],[14.535035,35.807542],[14.534955,35.807583],[14.534863,35.807613],[14.534743,35.807647],[14.534626,35.807684],[14.534587,35.807698],[14.534515,35.8077],[14.534429,35.807717],[14.534404,35.807691],[14.534335,35.807666],[14.534275,35.807646],[14.534159,35.807609],[14.534042,35.807604],[14.533999,35.807642],[14.53396,35.807668],[14.533924,35.807688],[14.533808,35.807779],[14.533724,35.807868],[14.533527,35.807854],[14.533322,35.80776],[14.53326,35.807617],[14.533084,35.807558],[14.532994,35.807529],[14.5329,35.807495],[14.532724,35.80745],[14.532647,35.807408],[14.532544,35.807338],[14.532445,35.807279],[14.532347,35.807225],[14.532322,35.80721],[14.532227,35.807196],[14.532088,35.807193],[14.531892,35.807182],[14.531751,35.807136],[14.53164,35.807064],[14.531517,35.807014],[14.531469,35.806943],[14.531373,35.806873],[14.531277,35.806831],[14.531328,35.806787],[14.531347,35.806737],[14.531191,35.806681],[14.531045,35.806657],[14.530957,35.806617],[14.53075,35.806587],[14.530631,35.80659],[14.530601,35.80657],[14.530645,35.806523],[14.530727,35.806471],[14.530694,35.80639],[14.53058,35.806354],[14.530522,35.806305],[14.530457,35.806265],[14.530366,35.806325],[14.530277,35.806404],[14.530225,35.80646],[14.530178,35.80652],[14.530263,35.806543],[14.530221,35.806575],[14.53009,35.806578],[14.530013,35.806577],[14.529985,35.806606],[14.529876,35.806672],[14.529784,35.806763],[14.529737,35.806787],[14.529645,35.806794],[14.529534,35.806764],[14.529381,35.806748],[14.529236,35.806641],[14.529198,35.806591],[14.529102,35.806555],[14.528965,35.806528],[14.528852,35.806543],[14.528745,35.806578],[14.5287,35.806609],[14.528678,35.806663],[14.528689,35.806721],[14.52871,35.80677],[14.528726,35.806873],[14.5288,35.807033],[14.528691,35.807159],[14.528632,35.807198],[14.528499,35.807225],[14.528402,35.807172],[14.528253,35.80715],[14.528117,35.807144],[14.528072,35.807097],[14.527974,35.806996],[14.527872,35.806964],[14.527756,35.806985],[14.527722,35.807044],[14.527658,35.80709],[14.527575,35.807091],[14.527504,35.80705],[14.527412,35.807033],[14.527338,35.807039],[14.527299,35.807001],[14.527151,35.80694],[14.527047,35.80689],[14.526974,35.806866],[14.526948,35.806836],[14.526858,35.806797],[14.526705,35.806746],[14.52653,35.806724],[14.526372,35.806696],[14.526326,35.806794],[14.526325,35.806857],[14.526199,35.806883],[14.526038,35.806857],[14.525791,35.806838],[14.525521,35.806824],[14.525296,35.806787],[14.525087,35.80675],[14.524884,35.806736],[14.524729,35.806758],[14.524614,35.806829],[14.524474,35.806988],[14.52437,35.807],[14.524199,35.807008],[14.523996,35.807109],[14.523756,35.807166],[14.523414,35.807269],[14.523282,35.807284],[14.523044,35.807288],[14.522827,35.80727],[14.52267,35.807249],[14.522464,35.807279],[14.522232,35.807288],[14.52207,35.807267],[14.521603,35.807158],[14.52144,35.807137],[14.521353,35.807091],[14.521265,35.807029],[14.521103,35.806986],[14.520721,35.806953],[14.52016,35.806917],[14.519881,35.806941],[14.519725,35.806948],[14.519336,35.806895],[14.518911,35.806822],[14.51872,35.80676],[14.518539,35.806704],[14.518392,35.80667],[14.518003,35.806604],[14.517581,35.806508],[14.517494,35.806421],[14.517245,35.806288],[14.517089,35.806257],[14.516973,35.806247],[14.516893,35.806286],[14.516817,35.806407],[14.516729,35.806468],[14.516547,35.806472],[14.516229,35.806456],[14.515953,35.806485],[14.515787,35.806505],[14.515616,35.806561],[14.515465,35.806642],[14.515334,35.806707],[14.515177,35.806783],[14.51502,35.806818],[14.514838,35.806853],[14.514607,35.806852],[14.514252,35.806854],[14.514061,35.806856],[14.513835,35.806906],[14.513516,35.806981],[14.51329,35.806974],[14.513062,35.806963],[14.512795,35.806994],[14.512713,35.806968],[14.512632,35.806922],[14.512479,35.806886],[14.512053,35.806978],[14.511934,35.807024],[14.511884,35.807059],[14.511858,35.80715],[14.51182,35.807198],[14.51092,35.807456],[14.510826,35.807476],[14.510686,35.807499],[14.51056,35.807542],[14.510431,35.807606],[14.510369,35.807706],[14.510339,35.807828],[14.510302,35.807893],[14.510265,35.807978],[14.510105,35.808109],[14.510031,35.808202],[14.509895,35.808316],[14.509772,35.808393],[14.509714,35.808446],[14.509636,35.80846],[14.509441,35.808432],[14.509396,35.808431],[14.509326,35.808418],[14.509173,35.808373],[14.509055,35.808431],[14.509025,35.808452],[14.508944,35.808452],[14.508917,35.808402],[14.508891,35.808356],[14.50881,35.808261],[14.5087,35.808234],[14.508466,35.808287],[14.50823,35.808382],[14.507991,35.8085],[14.507751,35.808616],[14.507566,35.808733],[14.507414,35.808796],[14.507286,35.808865],[14.507228,35.808892],[14.507215,35.808902],[14.50714,35.808946],[14.507066,35.809],[14.507018,35.809013],[14.506937,35.809027],[14.506768,35.809087],[14.506614,35.809162],[14.506492,35.809235],[14.506289,35.809321],[14.506178,35.809421],[14.506052,35.809483],[14.506,35.809505],[14.505768,35.809628],[14.505615,35.809727],[14.505399,35.809812],[14.505215,35.809874],[14.505,35.809944],[14.505,35.810812],[14.505195,35.810736]]]}},{"type":"Feature","properties":{"sitecode":"MT0000011","sitename":"Għar Dalam","type":"SAC"},"geometry":{"type":"Polygon","coordinates":[[[14.527719,35.835878],[14.527595,35.835868],[14.527607,35.835914],[14.527571,35.835992],[14.527548,35.836009],[14.527563,35.836006],[14.527571,35.836007],[14.52758,35.836009],[14.527589,35.836013],[14.527594,35.836013],[14.527594,35.836007],[14.52759,35.836],[14.527589,35.835992],[14.527592,35.835988],[14.52761,35.83598],[14.527617,35.835982],[14.527628,35.835985],[14.527637,35.83599],[14.527645,35.835998],[14.527652,35.836015],[14.527658,35.836023],[14.527663,35.836035],[14.527668,35.836048],[14.527677,35.83606],[14.527685,35.836072],[14.527702,35.836088],[14.527716,35.836103],[14.527736,35.836129],[14.527767,35.836158],[14.527783,35.83617],[14.527807,35.836203],[14.527824,35.836219],[14.527849,35.836235],[14.527864,35.836243],[14.527877,35.836261],[14.527934,35.836295],[14.527967,35.836325],[14.527994,35.836343],[14.528009,35.836345],[14.528009,35.836354],[14.528025,35.836356],[14.528056,35.836406],[14.528076,35.836427],[14.5281,35.836444],[14.528126,35.836472],[14.528152,35.836499],[14.528181,35.836533],[14.528205,35.836548],[14.528231,35.836568],[14.528244,35.836577],[14.52826,35.836586],[14.528269,35.836588],[14.528276,35.836593],[14.528267,35.836594],[14.528259,35.836598],[14.52826,35.836605],[14.528269,35.83661],[14.528273,35.836615],[14.528272,35.836632],[14.528281,35.836634],[14.528294,35.836638],[14.528311,35.836635],[14.528321,35.836635],[14.528338,35.836641],[14.528348,35.836645],[14.528356,35.836645],[14.528364,35.836652],[14.528354,35.83666],[14.52835,35.836663],[14.528335,35.836672],[14.528321,35.836672],[14.528297,35.836667],[14.528282,35.836664],[14.528271,35.836663],[14.528269,35.836671],[14.528264,35.836694],[14.528276,35.836705],[14.528321,35.836707],[14.528327,35.836704],[14.528341,35.836707],[14.52835,35.836725],[14.528358,35.836726],[14.528367,35.836735],[14.528367,35.836741],[14.528364,35.836743],[14.528354,35.836738],[14.528344,35.836739],[14.528303,35.83673],[14.528296,35.836729],[14.528292,35.836733],[14.528292,35.836738],[14.528296,35.836745],[14.528298,35.836755],[14.528304,35.836784],[14.52831,35.836788],[14.528315,35.836789],[14.528326,35.836788],[14.52834,35.836783],[14.528358,35.836779],[14.528376,35.836777],[14.528391,35.836781],[14.528409,35.836783],[14.528409,35.836788],[14.528409,35.83679],[14.528425,35.836792],[14.52843,35.836797],[14.528437,35.836804],[14.528438,35.83681],[14.528436,35.836816],[14.528432,35.836823],[14.528438,35.83683],[14.528446,35.836833],[14.528453,35.836836],[14.528467,35.836854],[14.528509,35.836892],[14.528536,35.83691],[14.528564,35.83692],[14.528582,35.836924],[14.528595,35.836926],[14.528607,35.836939],[14.528615,35.83694],[14.528625,35.836952],[14.528632,35.836955],[14.528651,35.836963],[14.528652,35.836975],[14.528655,35.836981],[14.528662,35.836981],[14.528666,35.836969],[14.528678,35.836973],[14.528682,35.836972],[14.528677,35.83696],[14.528681,35.836942],[14.528671,35.836938],[14.528673,35.83692],[14.52867,35.836911],[14.528663,35.836904],[14.528657,35.836899],[14.528648,35.836895],[14.528644,35.836892],[14.528645,35.836889],[14.528646,35.836886],[14.52865,35.836886],[14.528656,35.836886],[14.528666,35.836889],[14.528678,35.836895],[14.528683,35.836893],[14.528685,35.83688],[14.528691,35.836879],[14.528696,35.836879],[14.528701,35.836883],[14.528706,35.836884],[14.528708,35.836882],[14.528711,35.836878],[14.528711,35.836874],[14.528706,35.836867],[14.528698,35.836861],[14.528691,35.836861],[14.528682,35.836863],[14.528672,35.836864],[14.528666,35.836865],[14.528651,35.836865],[14.528646,35.836863],[14.528641,35.836856],[14.528632,35.836843],[14.528626,35.836835],[14.52862,35.83683],[14.52861,35.836826],[14.528602,35.836825],[14.528592,35.836824],[14.528577,35.836821],[14.52857,35.836814],[14.528553,35.836804],[14.528541,35.836797],[14.528526,35.836789],[14.528523,35.836784],[14.528524,35.836781],[14.52853,35.836781],[14.528542,35.836785],[14.528548,35.836786],[14.528562,35.836784],[14.528577,35.836784],[14.528589,35.836783],[14.52859,35.836778],[14.528584,35.836776],[14.528535,35.836765],[14.528521,35.83676],[14.528511,35.836761],[14.5285,35.836754],[14.528483,35.836736],[14.528469,35.836717],[14.528466,35.83671],[14.528469,35.836703],[14.528478,35.836698],[14.528487,35.836697],[14.528492,35.836695],[14.528491,35.836693],[14.528481,35.836686],[14.528468,35.836683],[14.52846,35.836683],[14.528452,35.83668],[14.528449,35.836677],[14.52845,35.836673],[14.528454,35.836672],[14.528469,35.836672],[14.528492,35.836676],[14.528525,35.836686],[14.528536,35.836686],[14.52854,35.836683],[14.528538,35.836678],[14.528522,35.836671],[14.528489,35.836659],[14.528469,35.836657],[14.52845,35.836654],[14.528436,35.83665],[14.528425,35.836643],[14.528419,35.836637],[14.528417,35.836629],[14.528418,35.836621],[14.528421,35.836618],[14.528426,35.836618],[14.528438,35.836626],[14.528448,35.83663],[14.52846,35.836632],[14.528474,35.836633],[14.528495,35.836629],[14.528506,35.836627],[14.52851,35.836634],[14.528515,35.836641],[14.52852,35.836643],[14.528527,35.836641],[14.528531,35.836639],[14.528539,35.836641],[14.528546,35.836645],[14.528552,35.836644],[14.528555,35.836641],[14.528556,35.836634],[14.528549,35.836627],[14.528535,35.836621],[14.528534,35.836618],[14.528535,35.836613],[14.528544,35.836606],[14.528561,35.836601],[14.528574,35.836596],[14.528575,35.836592],[14.528576,35.836585],[14.528573,35.836584],[14.528566,35.836584],[14.528553,35.836587],[14.528541,35.836594],[14.528536,35.836594],[14.528528,35.836593],[14.528523,35.836593],[14.528518,35.836596],[14.528511,35.836597],[14.528506,35.836597],[14.528504,35.836591],[14.528497,35.836592],[14.528485,35.836601],[14.528478,35.836603],[14.528461,35.836605],[14.528449,35.836605],[14.528434,35.836604],[14.528429,35.836602],[14.528429,35.836596],[14.528438,35.836588],[14.528445,35.836584],[14.528444,35.836578],[14.528439,35.836576],[14.528425,35.836577],[14.528419,35.836578],[14.528413,35.836578],[14.528403,35.836572],[14.528373,35.836554],[14.528347,35.836544],[14.528333,35.836537],[14.528313,35.836528],[14.528296,35.836524],[14.528272,35.836516],[14.528244,35.836507],[14.528246,35.836495],[14.528238,35.836485],[14.528225,35.836478],[14.528215,35.836472],[14.52821,35.836472],[14.528207,35.83646],[14.528194,35.836445],[14.528178,35.83643],[14.528146,35.836412],[14.528124,35.836396],[14.528118,35.836386],[14.528116,35.83638],[14.52812,35.836359],[14.528119,35.836353],[14.528116,35.83635],[14.52812,35.836346],[14.528125,35.836348],[14.528141,35.836357],[14.528152,35.836361],[14.528165,35.836362],[14.528174,35.83636],[14.528175,35.836354],[14.528166,35.836344],[14.528142,35.836324],[14.528118,35.836302],[14.528103,35.83629],[14.528085,35.836271],[14.528062,35.836247],[14.528054,35.836236],[14.52805,35.836233],[14.528042,35.836236],[14.528035,35.836242],[14.528033,35.836245],[14.528027,35.836245],[14.528018,35.836238],[14.528006,35.836226],[14.527994,35.836214],[14.527977,35.836196],[14.527939,35.836173],[14.527916,35.836152],[14.527897,35.836133],[14.527875,35.83612],[14.527867,35.836114],[14.527847,35.836105],[14.52783,35.8361],[14.527835,35.836094],[14.527836,35.836086],[14.52783,35.836074],[14.527814,35.836045],[14.527803,35.836021],[14.52779,35.835995],[14.52778,35.835967],[14.527772,35.835943],[14.527768,35.835931],[14.527786,35.835915],[14.527787,35.835909],[14.527787,35.835901],[14.527779,35.835894],[14.52777,35.835888],[14.527729,35.835887],[14.527721,35.835883],[14.527719,35.835878]]]}},{"type":"Feature","properties":{"sitecode":"MT0000033","sitename":"Rdumijiet ta’ Malta: Wied Moqbol sal-Ponta ta’ Bengħisa","type":"SPA"},"geometry":{"type":"Polygon","coordinates":[[[14.505195,35.810736],[14.505308,35.810701],[14.505445,35.810663],[14.50555,35.810631],[14.505634,35.810607],[14.505677,35.810604],[14.505738,35.810605],[14.505849,35.810585],[14.505945,35.81057],[14.506045,35.810561],[14.506071,35.81056],[14.506087,35.81057],[14.506099,35.810572],[14.506186,35.810568],[14.506273,35.810567],[14.506344,35.810562],[14.506422,35.810568],[14.50648,35.810573],[14.506557,35.810536],[14.506621,35.810497],[14.506752,35.810459],[14.506845,35.810441],[14.507009,35.810406],[14.507142,35.810366],[14.507267,35.810333],[14.50732,35.810322],[14.5074,35.810297],[14.507482,35.810281],[14.507594,35.810263],[14.507713,35.810238],[14.507864,35.810205],[14.508033,35.810175],[14.508127,35.810157],[14.50816,35.810143],[14.508214,35.810135],[14.508323,35.810114],[14.508387,35.810097],[14.508467,35.810069],[14.508583,35.810037],[14.508682,35.81002],[14.508761,35.809992],[14.508836,35.809981],[14.508976,35.809968],[14.509152,35.809955],[14.509314,35.809946],[14.509557,35.809978],[14.509736,35.810027],[14.509843,35.810057],[14.509933,35.810085],[14.51006,35.810146],[14.510093,35.810171],[14.510183,35.810086],[14.510272,35.810157],[14.510341,35.810238],[14.510352,35.810259],[14.51044,35.810353],[14.510522,35.810436],[14.510588,35.810517],[14.510685,35.810642],[14.510738,35.810722],[14.510801,35.810856],[14.510867,35.81106],[14.510902,35.811163],[14.510913,35.811285],[14.510888,35.811352],[14.510857,35.811408],[14.510856,35.811449],[14.510898,35.81154],[14.510957,35.811654],[14.510998,35.811788],[14.511033,35.811953],[14.511062,35.812059],[14.511053,35.812159],[14.511051,35.812302],[14.512162,35.812358],[14.512204,35.81236],[14.512416,35.812371],[14.512618,35.812238],[14.512668,35.812188],[14.512662,35.812107],[14.512204,35.811092],[14.512034,35.810713],[14.511925,35.810471],[14.511819,35.810169],[14.511787,35.810084],[14.511774,35.809985],[14.511654,35.809901],[14.511593,35.80984],[14.511565,35.809482],[14.511473,35.80888],[14.511477,35.808763],[14.511632,35.808616],[14.51179,35.808771],[14.512351,35.808384],[14.512222,35.808246],[14.512417,35.808116],[14.512458,35.807998],[14.512496,35.807922],[14.512577,35.807807],[14.512805,35.807609],[14.51286,35.807569],[14.513112,35.807407],[14.513221,35.80736],[14.513369,35.807314],[14.513485,35.807308],[14.513503,35.807297],[14.513788,35.807309],[14.513958,35.80731],[14.514177,35.807317],[14.514455,35.807247],[14.514641,35.807205],[14.51487,35.807148],[14.515022,35.807119],[14.515171,35.807092],[14.515293,35.807099],[14.515449,35.807122],[14.515801,35.807274],[14.515959,35.807351],[14.515995,35.807332],[14.51612,35.807282],[14.516293,35.807261],[14.516435,35.80728],[14.517081,35.807426],[14.517201,35.807451],[14.51727,35.807458],[14.517316,35.807431],[14.517374,35.807374],[14.517465,35.807268],[14.517534,35.807196],[14.517544,35.807157],[14.517536,35.80714],[14.517504,35.807119],[14.517425,35.807105],[14.517316,35.807107],[14.51732,35.807031],[14.517408,35.807052],[14.517527,35.807046],[14.518189,35.807004],[14.518206,35.807076],[14.518165,35.807109],[14.51816,35.807186],[14.518173,35.807276],[14.517686,35.807298],[14.51763,35.807306],[14.517589,35.807331],[14.51753,35.807393],[14.517497,35.807453],[14.517521,35.807504],[14.517582,35.807536],[14.518406,35.807721],[14.519,35.807802],[14.51904,35.807803],[14.519564,35.807708],[14.519917,35.807735],[14.520185,35.807776],[14.520773,35.807885],[14.521381,35.808764],[14.521505,35.808983],[14.521247,35.809135],[14.521247,35.809211],[14.521082,35.809249],[14.520988,35.809344],[14.521386,35.809346],[14.521573,35.809366],[14.521666,35.809442],[14.521807,35.809633],[14.52197,35.80971],[14.522086,35.809883],[14.522271,35.810188],[14.522434,35.810457],[14.522504,35.81059],[14.522714,35.810648],[14.522902,35.81063],[14.523161,35.81046],[14.523561,35.810193],[14.523819,35.810042],[14.52429,35.809662],[14.524479,35.809434],[14.524739,35.809148],[14.525092,35.808787],[14.525281,35.808616],[14.525446,35.808427],[14.525657,35.808255],[14.525893,35.808122],[14.526105,35.807876],[14.526528,35.807686],[14.527138,35.807669],[14.527559,35.807804],[14.527932,35.80794],[14.528284,35.808018],[14.528471,35.808018],[14.528636,35.808038],[14.5288,35.80802],[14.529246,35.807869],[14.529598,35.807755],[14.52995,35.807604],[14.530161,35.807605],[14.53009,35.807757],[14.530112,35.807968],[14.530534,35.807912],[14.530862,35.807913],[14.530861,35.807887],[14.530864,35.807964],[14.531666,35.808903],[14.531836,35.809061],[14.532616,35.809768],[14.533665,35.809365],[14.533713,35.809004],[14.533749,35.808652],[14.533783,35.808224],[14.533865,35.808254],[14.533935,35.808268],[14.534058,35.808398],[14.534395,35.808027],[14.534706,35.808018],[14.534795,35.808025],[14.535388,35.808027],[14.535629,35.808028],[14.535846,35.808316],[14.536044,35.808478],[14.536283,35.808728],[14.536852,35.809088],[14.537181,35.809304],[14.537429,35.809474],[14.537584,35.809577],[14.537702,35.809711],[14.537905,35.809962],[14.538054,35.810148],[14.538107,35.81034],[14.538161,35.810507],[14.538228,35.810814],[14.538136,35.810833],[14.538273,35.811519],[14.538408,35.811634],[14.538484,35.811647],[14.538728,35.811654],[14.538775,35.811647],[14.538818,35.811632],[14.538889,35.81159],[14.538998,35.811517],[14.539059,35.811455],[14.539121,35.811372],[14.539204,35.811255],[14.539269,35.811168],[14.539361,35.811043],[14.53937,35.811032],[14.539384,35.811013],[14.539399,35.810994],[14.539415,35.810975],[14.539431,35.810957],[14.539434,35.810953],[14.539449,35.810934],[14.539465,35.810916],[14.539481,35.810897],[14.539497,35.810879],[14.539515,35.810862],[14.539532,35.810844],[14.53955,35.810827],[14.539569,35.810811],[14.539588,35.810795],[14.539608,35.810779],[14.539628,35.810763],[14.539648,35.810748],[14.539669,35.810733],[14.539691,35.810719],[14.539713,35.810705],[14.539735,35.810692],[14.539757,35.810679],[14.53978,35.810666],[14.539803,35.810654],[14.539827,35.810642],[14.539851,35.810631],[14.539875,35.81062],[14.5399,35.81061],[14.539925,35.8106],[14.53995,35.81059],[14.540053,35.810558],[14.540106,35.810544],[14.540159,35.810533],[14.540213,35.810524],[14.540241,35.81052],[14.540268,35.810516],[14.540323,35.810511],[14.540406,35.810508],[14.540489,35.810509],[14.540544,35.810512],[14.540599,35.810517],[14.540654,35.810525],[14.540708,35.810535],[14.540734,35.81054],[14.540787,35.810553],[14.540866,35.810576],[14.540966,35.810613],[14.541039,35.810646],[14.54129,35.810808],[14.541415,35.810896],[14.541496,35.810955],[14.541557,35.811007],[14.54161,35.811054],[14.541645,35.811088],[14.54168,35.811125],[14.541681,35.81113],[14.5417,35.811155],[14.541718,35.811173],[14.541751,35.811202],[14.541778,35.811224],[14.541803,35.81124],[14.541895,35.811276],[14.542279,35.811576],[14.542009,35.811947],[14.542239,35.812133],[14.542488,35.812317],[14.542533,35.812279],[14.542735,35.81222],[14.54273,35.812217],[14.542675,35.812173],[14.542654,35.812117],[14.54258,35.812131],[14.542534,35.812143],[14.542488,35.8121],[14.542414,35.812086],[14.54235,35.812104],[14.542409,35.812029],[14.542535,35.811938],[14.542659,35.811889],[14.542778,35.811816],[14.542856,35.8118],[14.542911,35.811722],[14.542957,35.811635],[14.543043,35.811563],[14.543113,35.811495],[14.543107,35.811418],[14.543089,35.811397],[14.542993,35.811356],[14.542858,35.811324],[14.542792,35.811305],[14.542826,35.811282],[14.542774,35.811245],[14.542676,35.81122],[14.542602,35.811246],[14.542539,35.811191],[14.542516,35.811173],[14.542464,35.811152],[14.542421,35.811166],[14.542373,35.811165],[14.542324,35.811207],[14.542297,35.811168],[14.542337,35.81111],[14.542261,35.811044],[14.542123,35.810962],[14.541978,35.810887],[14.541913,35.810843],[14.541805,35.810817],[14.541743,35.810772],[14.541649,35.81071],[14.541499,35.810646],[14.541339,35.810589],[14.541253,35.810554],[14.541226,35.810523],[14.541132,35.810464],[14.541017,35.81043],[14.540898,35.810387],[14.540849,35.810357],[14.540809,35.810354],[14.540764,35.810295],[14.540723,35.810295],[14.540661,35.810302],[14.540568,35.810305],[14.54047,35.810272],[14.540365,35.810244],[14.54031,35.810246],[14.540251,35.810262],[14.540217,35.810216],[14.540131,35.810196],[14.540072,35.810181],[14.540013,35.810177],[14.539934,35.810163],[14.539821,35.810157],[14.539722,35.810183],[14.539647,35.81025],[14.539574,35.810329],[14.539508,35.810422],[14.539447,35.810515],[14.539403,35.810595],[14.539345,35.810697],[14.53929,35.810798],[14.539233,35.810897],[14.5392,35.810977],[14.539155,35.811058],[14.539083,35.811164],[14.539015,35.811248],[14.538963,35.811301],[14.538958,35.811348],[14.538913,35.811389],[14.538808,35.81142],[14.538745,35.811458],[14.538736,35.811438],[14.538686,35.811387],[14.538698,35.811338],[14.538728,35.811294],[14.538754,35.811249],[14.538799,35.811203],[14.538823,35.811179],[14.538858,35.811151],[14.53889,35.811098],[14.538916,35.811035],[14.538925,35.810941],[14.538965,35.810885],[14.539006,35.81081],[14.539018,35.810748],[14.539058,35.810646],[14.539089,35.810569],[14.539111,35.810468],[14.539083,35.810369],[14.5391,35.810259],[14.539101,35.810101],[14.539105,35.810024],[14.539106,35.809982],[14.53914,35.809919],[14.539149,35.809891],[14.539154,35.809844],[14.539136,35.809802],[14.539115,35.809773],[14.539165,35.809749],[14.539181,35.809703],[14.539212,35.809678],[14.539184,35.809588],[14.539133,35.809554],[14.539018,35.809534],[14.538868,35.809495],[14.538771,35.809473],[14.538654,35.809456],[14.538588,35.809442],[14.538431,35.809405],[14.538378,35.809375],[14.538308,35.809341],[14.538286,35.809298],[14.538313,35.809285],[14.538399,35.809267],[14.538474,35.809222],[14.538406,35.809117],[14.538318,35.809069],[14.538236,35.809028],[14.538149,35.808991],[14.538072,35.808994],[14.538071,35.80895],[14.538075,35.808899],[14.537888,35.808831],[14.537729,35.808866],[14.537615,35.808903],[14.537493,35.808934],[14.537275,35.808951],[14.537193,35.808892],[14.537169,35.808743],[14.537134,35.808701],[14.53711,35.808626],[14.537122,35.80854],[14.536919,35.808499],[14.536792,35.808497],[14.536763,35.808492],[14.53676,35.808433],[14.536696,35.808417],[14.536633,35.808327],[14.536477,35.808273],[14.536381,35.80821],[14.53634,35.808141],[14.536269,35.80808],[14.536173,35.808024],[14.536071,35.807963],[14.536023,35.807957],[14.536072,35.807916],[14.536053,35.807854],[14.535958,35.807814],[14.53581,35.807724],[14.535627,35.807596],[14.535391,35.807472],[14.535273,35.807457],[14.535159,35.807448],[14.53511,35.807496],[14.535035,35.807542],[14.534955,35.807583],[14.534863,35.807613],[14.534743,35.807647],[14.534626,35.807684],[14.534587,35.807698],[14.534515,35.8077],[14.534429,35.807717],[14.534404,35.807691],[14.534335,35.807666],[14.534275,35.807646],[14.534159,35.807609],[14.534042,35.807604],[14.533999,35.807642],[14.53396,35.807668],[14.533924,35.807688],[14.533808,35.807779],[14.533724,35.807868],[14.533527,35.807854],[14.533322,35.80776],[14.53326,35.807617],[14.533084,35.807558],[14.532994,35.807529],[14.5329,35.807495],[14.532724,35.80745],[14.532647,35.807408],[14.532544,35.807338],[14.532445,35.807279],[14.532347,35.807225],[14.532322,35.80721],[14.532227,35.807196],[14.532088,35.807193],[14.531892,35.807182],[14.531751,35.807136],[14.53164,35.807064],[14.531517,35.807014],[14.531469,35.806943],[14.531373,35.806873],[14.531277,35.806831],[14.531328,35.806787],[14.531347,35.806737],[14.531191,35.806681],[14.531045,35.806657],[14.530957,35.806617],[14.53075,35.806587],[14.530631,35.80659],[14.530601,35.80657],[14.530645,35.806523],[14.530727,35.806471],[14.530694,35.80639],[14.53058,35.806354],[14.530522,35.806305],[14.530457,35.806265],[14.530366,35.806325],[14.530277,35.806404],[14.530225,35.80646],[14.530178,35.80652],[14.530263,35.806543],[14.530221,35.806575],[14.53009,35.806578],[14.530013,35.806577],[14.529985,35.806606],[14.529876,35.806672],[14.529784,35.806763],[14.529737,35.806787],[14.529645,35.806794],[14.529534,35.806764],[14.529381,35.806748],[14.529236,35.806641],[14.529198,35.806591],[14.529102,35.806555],[14.528965,35.806528],[14.528852,35.806543],[14.528745,35.806578],[14.5287,35.806609],[14.528678,35.806663],[14.528689,35.806721],[14.52871,35.80677],[14.528726,35.806873],[14.5288,35.807033],[14.528691,35.807159],[14.528632,35.807198],[14.528499,35.807225],[14.528402,35.807172],[14.528253,35.80715],[14.528117,35.807144],[14.528072,35.807097],[14.527974,35.806996],[14.527872,35.806964],[14.527756,35.806985],[14.527722,35.807044],[14.527658,35.80709],[14.527575,35.807091],[14.527504,35.80705],[14.527412,35.807033],[14.527338,35.807039],[14.527299,35.807001],[14.527151,35.80694],[14.527047,35.80689],[14.526974,35.806866],[14.526948,35.806836],[14.526858,35.806797],[14.526705,35.806746],[14.52653,35.806724],[14.526372,35.806696],[14.526326,35.806794],[14.526325,35.806857],[14.526199,35.806883],[14.526038,35.806857],[14.525791,35.806838],[14.525521,35.806824],[14.525296,35.806787],[14.525087,35.80675],[14.524884,35.806736],[14.524729,35.806758],[14.524614,35.806829],[14.524474,35.806988],[14.52437,35.807],[14.524199,35.807008],[14.523996,35.807109],[14.523756,35.807166],[14.523414,35.807269],[14.523282,35.807284],[14.523044,35.807288],[14.522827,35.80727],[14.52267,35.807249],[14.522464,35.807279],[14.522232,35.807288],[14.52207,35.807267],[14.521603,35.807158],[14.52144,35.807137],[14.521353,35.807091],[14.521265,35.807029],[14.521103,35.806986],[14.520721,35.806953],[14.52016,35.806917],[14.519881,35.806941],[14.519725,35.806948],[14.519336,35.806895],[14.518911,35.806822],[14.51872,35.80676],[14.518539,35.806704],[14.518392,35.80667],[14.517801,35.806554],[14.517581,35.806508],[14.517494,35.806421],[14.517245,35.806288],[14.517089,35.806257],[14.516973,35.806247],[14.516893,35.806286],[14.516817,35.806407],[14.516729,35.806468],[14.516547,35.806472],[14.516229,35.806456],[14.515953,35.806485],[14.515787,35.806505],[14.515616,35.806561],[14.515465,35.806642],[14.515334,35.806707],[14.515177,35.806783],[14.51502,35.806818],[14.514838,35.806853],[14.514607,35.806852],[14.514252,35.806854],[14.514061,35.806856],[14.513835,35.806906],[14.513516,35.806981],[14.51329,35.806974],[14.513062,35.806963],[14.512795,35.806994],[14.512713,35.806968],[14.512632,35.806922],[14.512479,35.806886],[14.512053,35.806978],[14.511934,35.807024],[14.511884,35.807059],[14.511858,35.80715],[14.51182,35.807198],[14.51092,35.807456],[14.510686,35.807499],[14.51056,35.807542],[14.510431,35.807606],[14.510369,35.807706],[14.510339,35.807828],[14.510302,35.807893],[14.510265,35.807978],[14.510105,35.808109],[14.510031,35.808202],[14.509895,35.808316],[14.509772,35.808393],[14.509714,35.808446],[14.509636,35.80846],[14.509441,35.808432],[14.509396,35.808431],[14.509326,35.808418],[14.509173,35.808373],[14.509055,35.808431],[14.509025,35.808452],[14.508944,35.808452],[14.508917,35.808402],[14.508891,35.808356],[14.50881,35.808261],[14.5087,35.808234],[14.508466,35.808287],[14.50823,35.808382],[14.507991,35.8085],[14.507751,35.808616],[14.507566,35.808733],[14.507414,35.808796],[14.507286,35.808865],[14.507228,35.808892],[14.507215,35.808902],[14.50714,35.808946],[14.507066,35.809],[14.507018,35.809013],[14.506937,35.809027],[14.506768,35.809087],[14.506614,35.809162],[14.506492,35.809235],[14.506292,35.809322],[14.506169,35.809432],[14.506,35.809505],[14.505768,35.809628],[14.505615,35.809727],[14.505399,35.809812],[14.505215,35.809874],[14.505,35.809944],[14.505,35.810812],[14.505195,35.810736]]]}},{"type":"Feature","properties":{"sitecode":"MT0000108","sitename":"Żona fil-Baħar fil-Lvant","type":"SPA"},"geometry":{"type":"Polygon","coordinates":[[[14.580153,35.819875],[14.580153,35.862],[14.6,35.862],[14.6,35.795],[14.580153,35.795],[14.580153,35.819875]]]}},{"type":"Feature","properties":{"sitecode":"MT0000111","sitename":"Żona fil-Baħar fil-Lbiċ","type":"SPA"},"geometry":{"type":"Polygon","coordinates":[[[14.505215,35.809874],[14.505399,35.809812],[14.505615,35.809727],[14.505768,35.809628],[14.506,35.809505],[14.506052,35.809483],[14.506178,35.809421],[14.506289,35.809321],[14.506492,35.809235],[14.506614,35.809162],[14.506768,35.809087],[14.506937,35.809027],[14.507018,35.809013],[14.507066,35.809],[14.50714,35.808946],[14.507215,35.808902],[14.507228,35.808892],[14.507286,35.808865],[14.507414,35.808796],[14.507566,35.808733],[14.507751,35.808616],[14.507991,35.8085],[14.50823,35.808382],[14.508466,35.808287],[14.5087,35.808234],[14.50881,35.808261],[14.508891,35.808356],[14.508917,35.808402],[14.508944,35.808452],[14.509025,35.808452],[14.509055,35.808431],[14.509173,35.808373],[14.509326,35.808418],[14.509396,35.808431],[14.509441,35.808432],[14.509636,35.80846],[14.509714,35.808446],[14.509772,35.808393],[14.509895,35.808316],[14.510031,35.808202],[14.510105,35.808109],[14.510265,35.807978],[14.510302,35.807893],[14.510339,35.807828],[14.510369,35.807706],[14.510431,35.807606],[14.51056,35.807542],[14.510686,35.807499],[14.510826,35.807476],[14.51092,35.807456],[14.51182,35.807198],[14.511858,35.80715],[14.511884,35.807059],[14.511934,35.807024],[14.512053,35.806978],[14.512479,35.806886],[14.512632,35.806922],[14.512713,35.806968],[14.512795,35.806994],[14.513062,35.806963],[14.51329,35.806974],[14.513516,35.806981],[14.513835,35.806906],[14.514061,35.806856],[14.514252,35.806854],[14.514607,35.806852],[14.514838,35.806853],[14.51502,35.806818],[14.515177,35.806783],[14.515334,35.806707],[14.515465,35.806642],[14.515616,35.806561],[14.515787,35.806505],[14.515953,35.806485],[14.516229,35.806456],[14.516547,35.806472],[14.516729,35.806468],[14.516817,35.806407],[14.516893,35.806286],[14.516973,35.806247],[14.517089,35.806257],[14.517245,35.806288],[14.517494,35.806421],[14.517581,35.806508],[14.518003,35.806604],[14.518392,35.80667],[14.518539,35.806704],[14.51872,35.80676],[14.518911,35.806822],[14.519336,35.806895],[14.519725,35.806948],[14.519881,35.806941],[14.52016,35.806917],[14.520721,35.806953],[14.521103,35.806986],[14.521265,35.807029],[14.521353,35.807091],[14.52144,35.807137],[14.521603,35.807158],[14.52207,35.807267],[14.522232,35.807288],[14.522464,35.807279],[14.52267,35.807249],[14.522827,35.80727],[14.523044,35.807288],[14.523282,35.807284],[14.523414,35.807269],[14.523756,35.807166],[14.523996,35.807109],[14.524199,35.807008],[14.52437,35.807],[14.524474,35.806988],[14.524614,35.806829],[14.524729,35.806758],[14.524884,35.806736],[14.525087,35.80675],[14.525296,35.806787],[14.525521,35.806824],[14.525791,35.806838],[14.526038,35.806857],[14.526199,35.806883],[14.526325,35.806857],[14.526326,35.806794],[14.526372,35.806696],[14.52653,35.806724],[14.526705,35.806746],[14.526858,35.806797],[14.526948,35.806836],[14.526974,35.806866],[14.527047,35.80689],[14.527151,35.80694],[14.527299,35.807001],[14.527338,35.807039],[14.527412,35.807033],[14.527504,35.80705],[14.527575,35.807091],[14.527658,35.80709],[14.527722,35.807044],[14.527756,35.806985],[14.527872,35.806964],[14.527974,35.806996],[14.528072,35.807097],[14.528117,35.807144],[14.528253,35.80715],[14.528402,35.807172],[14.528499,35.807225],[14.528632,35.807198],[14.528691,35.807159],[14.5288,35.807033],[14.528726,35.806873],[14.52871,35.80677],[14.528689,35.806721],[14.528678,35.806663],[14.5287,35.806609],[14.528745,35.806578],[14.528852,35.806543],[14.528965,35.806528],[14.529102,35.806555],[14.529198,35.806591],[14.529236,35.806641],[14.529381,35.806748],[14.529534,35.806764],[14.529645,35.806794],[14.529737,35.806787],[14.529784,35.806763],[14.529876,35.806672],[14.529985,35.806606],[14.530013,35.806577],[14.53009,35.806578],[14.530221,35.806575],[14.530263,35.806543],[14.530178,35.80652],[14.530225,35.80646],[14.530277,35.806404],[14.530366,35.806325],[14.530457,35.806265],[14.530522,35.806305],[14.53058,35.806354],[14.530694,35.80639],[14.530727,35.806471],[14.530645,35.806523],[14.530601,35.80657],[14.530631,35.80659],[14.53075,35.806587],[14.530957,35.806617],[14.531045,35.806657],[14.531191,35.806681],[14.531347,35.806737],[14.531328,35.806787],[14.531277,35.806831],[14.531373,35.806873],[14.531469,35.806943],[14.531517,35.807014],[14.53164,35.807064],[14.531751,35.807136],[14.531892,35.807182],[14.532088,35.807193],[14.532227,35.807196],[14.532322,35.80721],[14.532347,35.807225],[14.532445,35.807279],[14.532544,35.807338],[14.532647,35.807408],[14.532724,35.80745],[14.5329,35.807495],[14.532994,35.807529],[14.533084,35.807558],[14.53326,35.807617],[14.533322,35.80776],[14.533527,35.807854],[14.533724,35.807868],[14.533808,35.807779],[14.533924,35.807688],[14.53396,35.807668],[14.533999,35.807642],[14.534042,35.807604],[14.534159,35.807609],[14.534275,35.807646],[14.534335,35.807666],[14.534404,35.807691],[14.534429,35.807717],[14.534515,35.8077],[14.534587,35.807698],[14.534626,35.807684],[14.534743,35.807647],[14.534863,35.807613],[14.534955,35.807583],[14.535035,35.807542],[14.53511,35.807496],[14.535159,35.807448],[14.535273,35.807457],[14.535391,35.807472],[14.535627,35.807596],[14.53581,35.807724],[14.535958,35.807814],[14.536053,35.807854],[14.536072,35.807916],[14.536023,35.807957],[14.536071,35.807963],[14.536173,35.808024],[14.536269,35.80808],[14.53634,35.808141],[14.536381,35.80821],[14.536477,35.808273],[14.536633,35.808327],[14.536696,35.808417],[14.53676,35.808433],[14.536763,35.808492],[14.536792,35.808497],[14.536919,35.808499],[14.537122,35.80854],[14.53711,35.808626],[14.537134,35.808701],[14.537169,35.808743],[14.537193,35.808892],[14.537275,35.808951],[14.537493,35.808934],[14.537615,35.808903],[14.537729,35.808866],[14.537888,35.808831],[14.538075,35.808899],[14.538071,35.80895],[14.538072,35.808994],[14.538149,35.808991],[14.538236,35.809028],[14.538318,35.809069],[14.538406,35.809117],[14.538474,35.809222],[14.538399,35.809267],[14.538313,35.809285],[14.538286,35.809298],[14.538308,35.809341],[14.538378,35.809375],[14.538431,35.809405],[14.538588,35.809442],[14.538654,35.809456],[14.538771,35.809473],[14.538868,35.809495],[14.539018,35.809534],[14.539133,35.809554],[14.539184,35.809588],[14.539212,35.809678],[14.539181,35.809703],[14.539165,35.809749],[14.539115,35.809773],[14.539136,35.809802],[14.539154,35.809844],[14.539149,35.809891],[14.53914,35.809919],[14.539106,35.809982],[14.539105,35.810024],[14.539101,35.810101],[14.5391,35.810259],[14.539083,35.810369],[14.539111,35.810468],[14.539089,35.810569],[14.539058,35.810646],[14.539018,35.810748],[14.539006,35.81081],[14.538965,35.810885],[14.538925,35.810941],[14.538916,35.811035],[14.53889,35.811098],[14.538858,35.811151],[14.538823,35.811179],[14.538799,35.811203],[14.538754,35.811249],[14.538728,35.811294],[14.538698,35.811338],[14.538686,35.811387],[14.538736,35.811438],[14.538745,35.811458],[14.538808,35.81142],[14.538913,35.811389],[14.538958,35.811348],[14.538963,35.811301],[14.539015,35.811248],[14.539083,35.811164],[14.539155,35.811058],[14.5392,35.810977],[14.539233,35.810897],[14.53929,35.810798],[14.539345,35.810697],[14.539403,35.810595],[14.539447,35.810515],[14.539508,35.810422],[14.539574,35.810329],[14.539647,35.81025],[14.539722,35.810183],[14.539821,35.810157],[14.539934,35.810163],[14.540013,35.810177],[14.540072,35.810181],[14.540131,35.810196],[14.540217,35.810216],[14.540251,35.810262],[14.54031,35.810246],[14.540365,35.810244],[14.54047,35.810272],[14.540568,35.810305],[14.540661,35.810302],[14.540723,35.810295],[14.540764,35.810295],[14.540809,35.810354],[14.540849,35.810357],[14.540898,35.810387],[14.541017,35.81043],[14.541132,35.810464],[14.541226,35.810523],[14.541253,35.810554],[14.541339,35.810589],[14.541499,35.810646],[14.541649,35.81071],[14.541743,35.810772],[14.541805,35.810817],[14.541913,35.810843],[14.541978,35.810887],[14.542123,35.810962],[14.542261,35.811044],[14.542337,35.81111],[14.542297,35.811168],[14.542324,35.811207],[14.542373,35.811165],[14.542421,35.811166],[14.542464,35.811152],[14.542516,35.811173],[14.542539,35.811191],[14.542602,35.811246],[14.542676,35.81122],[14.542774,35.811245],[14.542826,35.811282],[14.542792,35.811305],[14.542858,35.811324],[14.542993,35.811356],[14.543089,35.811397],[14.543107,35.811418],[14.543113,35.811495],[14.543043,35.811563],[14.542957,35.811635],[14.542911,35.811722],[14.542856,35.8118],[14.542778,35.811816],[14.542659,35.811889],[14.542535,35.811938],[14.542409,35.812029],[14.54235,35.812104],[14.542414,35.812086],[14.542488,35.8121],[14.542534,35.812143],[14.54258,35.812131],[14.542654,35.812117],[14.542675,35.812173],[14.54273,35.812217],[14.542735,35.81222],[14.580181,35.819868],[14.580181,35.795],[14.505,35.795],[14.505,35.809944],[14.505215,35.809874]]]}}]}