{"type":"FeatureCollection","features":[{"type":"Feature","properties":{"habsubtype":"Posidonia oceanica","anxi_code":"1120","map_id":"EUSM16me","source":" ","det_date":"2016-09-20"},"geometry":{"type":"Polygon","coordinates":[[[14.5728,35.8584],[14.5749,35.8584],[14.5749,35.8605],[14.577,35.8605],[14.5791,35.8605],[14.5791,35.8563],[14.5728,35.8563],[14.5728,35.8584]]]}},{"type":"Feature","properties":{"habsubtype":"Posidonia oceanica","anxi_code":"1120","map_id":"EUSM16me","source":" ","det_date":"2016-09-20"},"geometry":{"type":"Polygon","coordinates":[[[14.5728,35.8521],[14.5708,35.8521],[14.5708,35.8563],[14.5728,35.8563],[14.5728,35.8521]]]}},{"type":"Feature","properties":{"habsubtype":"Posidonia oceanica","anxi_code":"1120","map_id":"EUSM16me","source":" ","det_date":"2016-09-20"},"geometry":{"type":"Polygon","coordinates":[[[14.5645,35.8355],[14.5645,35.8396],[14.5687,35.8396],[14.5687,35.8355],[14.5645,35.8355]]]}},{"type":"Feature","properties":{"habsubtype":"Posidonia oceanica","anxi_code":"1120","map_id":"EUSM16me","source":" ","det_date":"2016-09-20"},"geometry":{"type":"Polygon","coordinates":[[[14.5395,35.8292],[14.5395,35.8313],[14.5416,35.8313],[14.5416,35.8292],[14.5395,35.8292]]]}},{"type":"Feature","properties":{"habsubtype":"Posidonia oceanica","anxi_code":"1120","map_id":"EUSM16me","source":" ","det_date":"2016-09-20"},"geometry":{"type":"Polygon","coordinates":[[[14.5499,35.8292],[14.5499,35.8334],[14.552,35.8334],[14.552,35.8292],[14.5499,35.8292]]]}},{"type":"Feature","properties":{"habsubtype":"Posidonia oceanica","anxi_code":"1120","map_id":"EUSM16me","source":" ","det_date":"2016-09-20"},"geometry":{"type":"Polygon","coordinates":[[[14.5562,35.8146],[14.5583,35.8146],[14.5583,35.8126],[14.5562,35.8126],[14.5562,35.8105],[14.5541,35.8105],[14.5541,35.8084],[14.5562,35.8084],[14.5562,35.8063],[14.5583,35.8063],[14.5583,35.8042],[14.5562,35.8042],[14.5562,35.8021],[14.5541,35.8021],[14.552,35.8021],[14.5499,35.8021],[14.5499,35.8042],[14.5478,35.8042],[14.5478,35.8063],[14.5437,35.8063],[14.5437,35.8084],[14.5499,35.8084],[14.5499,35.8105],[14.5458,35.8105],[14.5458,35.8167],[14.5478,35.8167],[14.5499,35.8167],[14.552,35.8167],[14.552,35.8146],[14.5541,35.8146],[14.5541,35.8167],[14.5562,35.8167],[14.5562,35.8146]]]}}]}